{"type": "FeatureCollection", "features": [{"type": "Feature", "properties": {"name": "P1", "coordinate_units": "m"}, "geometry": {"type": "Polygon", "coordinates": [[[1499.0657826714216, -52.348530649634895], [4.996573570520739, -0.17448419390471293], [5.0, -1.2246467991473533e-15], [1500.0, -3.67394039744206e-13], [1499.8815663057242, -18.84905982502891], [1499.52628392495, -37.69514316500622], [1499.0657826714216, -52.348530649634895]]]}}, {"type": "Feature", "properties": {"name": "no_signal_credible", "coordinate_units": "m"}, "geometry": {"type": "Polygon", "coordinates": [[[93.83893079730775, -2.8670386408428157], [93.83245257424875, -3.071756444016865], [93.8255277419982, -3.276459626719887], [4.9969541350954785, -0.1744974835125041], [4.996573570520739, -0.17448419390471293], [5.0, -1.2246467991473533e-15], [93.88271855751728, -2.2994634155343074e-14], [93.88249513329738, -0.20482015621533067], [4.9999881008867595, -0.010908299171686616], [4.999952403603673, -0.02181654642373272], [93.88182486170112, -0.40963933755926185], [93.88070774591876, -0.6144565691653302], [93.87914379126734, -0.8192708761759959], [93.87713300519076, -1.024081283747973], [93.87467539725964, -1.2288868170562846], [93.87177097917133, -1.4336865012991544], [93.86841976474982, -1.6384793617028954], [93.86462176994569, -1.8432644235260491], [93.86037701283608, -2.0480407120642763], [93.8556855136245, -2.252807252655245], [93.85054729464083, -2.4575630706827702], [93.84496238034119, -2.6623071915817023], [93.83893079730775, -2.8670386408428157]]]}}, {"type": "Feature", "properties": {"name": "bin_279.250_deg_credible", "coordinate_units": "m"}, "geometry": {"type": "Polygon", "coordinates": [[[991.7010741567058, -30.299208181666273], [991.7648166495314, -28.1355816737678], [991.8238386936125, -25.971821250481234], [991.878140008025, -23.807937210536938], [991.9277203343139, -21.64393985325628], [987.4896556913428, -21.547100938254538], [987.5343140857586, -19.392683141331446], [987.5742721671218, -17.238173042114383], [987.6095297452455, -15.083580895308078], [987.6400866523162, -12.928916956007795], [987.6659427428941, -10.774191479647858], [987.6870978939135, -8.61941472195812], [987.7035520046829, -6.464596938912526], [987.715304996887, -4.309748386677639], [987.7223568145855, -2.1548793215699926], [987.7247074242144, -2.4192278027716404e-13], [989.5606547055869, -2.4237245766947127e-13], [992.1638284577805, -2.4301005135012094e-13], [994.2035784502998, -2.4350964601000085e-13], [996.5831763298786, -2.4409247939529763e-13], [1000.9830129365333, -2.451701285587199e-13], [1005.3635944429508, -2.4624306158276754e-13], [1009.7251714575606, -2.473113398488028e-13], [1009.7227684907291, -2.2028768502883267], [1009.715559601672, -4.405743215663071], [1009.7035448247011, -6.6085886112637375], [1009.6867242170024, -8.81140255232581], [1009.6650978586359, -11.014174554238066], [1009.6386658525356, -13.216894132586212], [1009.6074283245085, -15.419550803205471], [1013.9497396542434, -15.485870135129662], [1013.9135417328154, -17.69792670254539], [1013.8725179425674, -19.909899034107532], [1013.8266684787585, -22.121776601611487], [1013.7759935596157, -24.33354887730639], [1013.7204934263335, -26.54520533393984], [1013.6601683430731, -28.756735444810683], [1013.5950185969602, -30.968128683821828], [1013.525044498085, -33.17937452552405], [1013.4502463794988, -35.39046244517327], [1009.1100741649698, -35.23890029171521], [1004.7511541052314, -35.08668344907613], [1000.3732411307083, -34.933803359237885], [995.9760847856347, -34.78025127609239], [991.5594290608535, -34.6260182596029], [991.6326115185273, -32.46269047608016], [991.7010741567058, -30.299208181666273]]]}}, {"type": "Feature", "properties": {"name": "bin_279.750_deg_credible", "coordinate_units": "m"}, "geometry": {"type": "Polygon", "coordinates": [[[995.9760847856347, -34.78025127609239], [996.0495932164283, -32.60728748512558], [996.1183608044606, -30.43416849503714], [996.1823872224223, -28.2609046491009], [996.2416721655705, -26.087506291283656], [996.2962153517299, -23.91398376618892], [996.3460165212939, -21.740347419013833], [996.391075437227, -19.5666075954973], [996.4313918850646, -17.39277464186807], [996.4669656729147, -15.218858904800829], [992.0481331369489, -15.151370878398073], [992.078827375614, -12.987023255029424], [992.104799670955, -10.822613818035746], [992.1260498993528, -8.658152869239112], [992.1425779596638, -6.493650710706783], [992.1543837732203, -4.329117644699511], [992.1614672838308, -2.1645639736286855], [992.1638284577805, -2.4301005135012094e-13], [995.1142796857102, -2.4373270348058584e-13], [996.5831763298786, -2.4409247939529763e-13], [1000.9830129365333, -2.4517012855871984e-13], [1005.3635944429508, -2.462430615827675e-13], [1007.93518358448, -2.468729192649467e-13], [1009.7251714575606, -2.473113398488028e-13], [1011.2212609020002, -2.4767777607867703e-13], [1014.067989199319, -2.4837502341814774e-13], [1014.0655758973514, -2.2123514013233683], [1014.0583360029356, -4.424692272637647], [1014.0462695505305, -6.637012083987062], [1014.0293765975683, -8.84930030551223], [1014.0076572244534, -11.061546407507725], [1018.3316984095901, -11.108716250749625], [1018.3050395206956, -13.330343178427562], [1018.2735338610096, -15.551906658399385], [1018.2371815804877, -17.77339611681274], [1018.1959828521539, -19.994800980164865], [1018.1499378720997, -22.21611067535565], [1018.0990468594828, -24.437314629740666], [1018.0433100565261, -26.658402271176044], [1017.9827277285175, -28.87936302807154], [1017.917300163807, -31.10018632944355], [1022.2213058926993, -31.231685597714165], [1022.150736273257, -33.46175043671023], [1022.0753015788706, -35.691656009644134], [1017.771910592989, -35.54137828499329], [1013.4502463794988, -35.39046244517327], [1009.1100741649698, -35.23890029171521], [1004.7511541052314, -35.08668344907613], [1001.4401008776495, -34.97105892254084], [1000.3732411307083, -34.933803359237885], [997.9640368428066, -34.84967209164154], [995.9760847856347, -34.78025127609239]]]}}, {"type": "Feature", "properties": {"name": "bin_280.750_deg_credible", "coordinate_units": "m"}, "geometry": {"type": "Polygon", "coordinates": [[[1009.3791638597509, -26.431523618403315], [1005.0190814486511, -26.317350842351065], [1005.0741051887583, -24.124678448984625], [1005.1243451326282, -21.93189123070588], [1005.1698010411363, -19.73899962440509], [1005.2104726979293, -17.546014067466693], [1005.2463599094239, -15.352944997724968], [1005.2774625048098, -13.159802853411696], [1005.30378033605, -10.96659807310378], [1005.3253132778807, -8.773341095678926], [1005.3420612278128, -6.580042360263287], [1005.3540241061319, -4.386712306179087], [1001.1365698538619, -4.368310073706174], [1000.9766100980511, -3.412428265188065], [1000.9806307744888, -2.183804434177592], [1000.9830129365333, -2.451701285587199e-13], [1005.3635944429508, -2.4624306158276754e-13], [1009.7251714575606, -2.473113398488028e-13], [1014.067989199319, -2.483750234181478e-13], [1018.3922876585918, -2.4943417107148907e-13], [1022.6983017519145, -2.504888403467833e-13], [1026.9862614709118, -2.5153908757573184e-13], [1026.9838174257475, -2.2405346770673362], [1026.9764853018871, -4.481058689983172], [1026.964265134229, -6.721561374650003], [1026.9471569809368, -8.962032067067941], [1026.9251609234393, -11.202460103393019], [1026.8982770664302, -13.442834819981558], [1026.8665055378667, -15.683145553443664], [1026.8298464889701, -17.923381640696718], [1031.0993266821365, -17.997905694678177], [1031.0576075406502, -20.24737084908901], [1031.0109809306718, -22.4967396331955], [1030.9594470741276, -24.74600134080193], [1030.9030062163004, -26.995145266219474], [1030.8416586258288, -29.244160704319913], [1030.7754045947054, -31.493036950589328], [1030.7042444382762, -33.74176330117264], [1030.6281784952378, -35.99032905293188], [1026.360649188664, -35.84130364571774], [1022.0753015788706, -35.691656009644134], [1017.771910592989, -35.54137828499329], [1013.4502463794988, -35.39046244517327], [1009.1100741649698, -35.23890029171521], [1009.1845519553334, -33.03728151215158], [1009.2542263851911, -30.835505486847286], [1009.3190971229176, -28.63358269547345], [1009.3791638597509, -26.431523618403315]]]}}]}