{"type": "FeatureCollection", "features": [{"type": "Feature", "properties": {"name": "0", "coordinate_units": "m"}, "geometry": {"type": "Polygon", "coordinates": [[[4.9969541350954785, -0.17449748351250408], [4.997884750411003, -0.1454235937155566], [173.20242733084854, -5.0396759190251865], [173.17017672091865, -6.047235824116392], [4.9969541350954785, -0.17449748351250408]]]}}, {"type": "Feature", "properties": {"name": "1", "coordinate_units": "m"}, "geometry": {"type": "Polygon", "coordinates": [[[4.997884750411003, -0.1454235937155566], [4.998646205897309, -0.11634478187028152], [173.2288156821449, -4.031945439628979], [173.20242733084854, -5.0396759190251865], [4.997884750411003, -0.1454235937155566]]]}}, {"type": "Feature", "properties": {"name": "2", "coordinate_units": "m"}, "geometry": {"type": "Polygon", "coordinates": [[[4.998646205897309, -0.11634478187028152], [4.999238475781956, -0.0872620321864178], [173.24934088166006, -3.024078493860286], [173.2288156821449, -4.031945439628979], [4.998646205897309, -0.11634478187028152]]]}}, {"type": "Feature", "properties": {"name": "3", "coordinate_units": "m"}, "geometry": {"type": "Polygon", "coordinates": [[[4.999238475781956, -0.0872620321864178], [4.999661540018811, -0.05817632900698564], [173.26400223469227, -2.016109194270504], [173.24934088166006, -3.024078493860286], [4.999238475781956, -0.0872620321864178]]]}}, {"type": "Feature", "properties": {"name": "4", "coordinate_units": "m"}, "geometry": {"type": "Polygon", "coordinates": [[[4.999661540018811, -0.05817632900698564], [4.999915384288721, -0.029088656774970065], [173.27279924500925, -1.0080716568753265], [173.26400223469227, -2.016109194270504], [4.999661540018811, -0.05817632900698564]]]}}, {"type": "Feature", "properties": {"name": "5", "coordinate_units": "m"}, "geometry": {"type": "Polygon", "coordinates": [[[173.27573161486484, -4.2440314018412014e-14], [173.27279924500925, -1.0080716568753265], [4.999915384288721, -0.029088656774970065], [5.0, -1.2246467991473533e-15], [173.27573161486484, -4.2440314018412014e-14]]]}}, {"type": "Feature", "properties": {"name": "6", "coordinate_units": "m"}, "geometry": {"type": "Polygon", "coordinates": [[[173.17017672091865, -6.047235824116392], [173.20242733084854, -5.0396759190251865], [244.89422780992072, -7.125694262034792], [244.84862805513154, -8.550302500683886], [173.17017672091865, -6.047235824116392]]]}}, {"type": "Feature", "properties": {"name": "7", "coordinate_units": "m"}, "geometry": {"type": "Polygon", "coordinates": [[[173.20242733084854, -5.0396759190251865], [173.2288156821449, -4.031945439628979], [244.9315388050002, -5.700844845110362], [244.89422780992072, -7.125694262034792], [173.20242733084854, -5.0396759190251865]]]}}, {"type": "Feature", "properties": {"name": "8", "coordinate_units": "m"}, "geometry": {"type": "Polygon", "coordinates": [[[173.2288156821449, -4.031945439628979], [173.24934088166006, -3.024078493860286], [244.96055977753144, -4.275802475769348], [244.9315388050002, -5.700844845110362], [173.2288156821449, -4.031945439628979]]]}}, {"type": "Feature", "properties": {"name": "9", "coordinate_units": "m"}, "geometry": {"type": "Polygon", "coordinates": [[[173.24934088166006, -3.024078493860286], [173.26400223469227, -2.016109194270504], [244.98128974526227, -2.850615386401223], [244.96055977753144, -4.275802475769348], [173.24934088166006, -3.024078493860286]]]}}, {"type": "Feature", "properties": {"name": "10", "coordinate_units": "m"}, "geometry": {"type": "Polygon", "coordinates": [[[173.26400223469227, -2.016109194270504], [173.27279924500925, -1.0080716568753265], [244.99372800656042, -1.4253318142936964], [244.98128974526227, -2.850615386401223], [173.26400223469227, -2.016109194270504]]]}}, {"type": "Feature", "properties": {"name": "11", "coordinate_units": "m"}, "geometry": {"type": "Polygon", "coordinates": [[[173.27279924500925, -1.0080716568753265], [173.27573161486484, -4.2440314018412014e-14], [244.99787414043686, -6.000717247279842e-14], [244.99372800656042, -1.4253318142936964], [173.27279924500925, -1.0080716568753265]]]}}, {"type": "Feature", "properties": {"name": "12", "coordinate_units": "m"}, "geometry": {"type": "Polygon", "coordinates": [[[244.84862805513154, -8.550302500683886], [244.89422780992072, -7.125694262034792], [299.9121284575481, -8.726551670802664], [299.85628426865776, -10.471212183597732], [244.84862805513154, -8.550302500683886]]]}}, {"type": "Feature", "properties": {"name": "13", "coordinate_units": "m"}, "geometry": {"type": "Polygon", "coordinates": [[[244.89422780992072, -7.125694262034792], [244.9315388050002, -5.700844845110362], [299.95782173521013, -6.981595796656941], [299.9121284575481, -8.726551670802664], [244.89422780992072, -7.125694262034792]]]}}, {"type": "Feature", "properties": {"name": "14", "coordinate_units": "m"}, "geometry": {"type": "Polygon", "coordinates": [[[244.9315388050002, -5.700844845110362], [244.96055977753144, -4.275802475769348], [299.99336255509627, -5.236403621433538], [299.95782173521013, -6.981595796656941], [244.9315388050002, -5.700844845110362]]]}}, {"type": "Feature", "properties": {"name": "15", "coordinate_units": "m"}, "geometry": {"type": "Polygon", "coordinates": [[[244.96055977753144, -4.275802475769348], [244.98128974526227, -2.850615386401223], [300.0187497142818, -3.491034213403347], [299.99336255509627, -5.236403621433538], [244.96055977753144, -4.275802475769348]]]}}, {"type": "Feature", "properties": {"name": "16", "coordinate_units": "m"}, "geometry": {"type": "Polygon", "coordinates": [[[244.98128974526227, -2.850615386401223], [244.99372800656042, -1.4253318142936964], [300.0339823535056, -1.7455466468359286], [300.0187497142818, -3.491034213403347], [244.98128974526227, -2.850615386401223]]]}}, {"type": "Feature", "properties": {"name": "17", "coordinate_units": "m"}, "geometry": {"type": "Polygon", "coordinates": [[[244.99372800656042, -1.4253318142936964], [244.99787414043686, -6.000717247279842e-14], [300.0390599571996, -7.348837487915305e-14], [300.0339823535056, -1.7455466468359286], [244.99372800656042, -1.4253318142936964]]]}}, {"type": "Feature", "properties": {"name": "18", "coordinate_units": "m"}, "geometry": {"type": "Polygon", "coordinates": [[[299.85628426865776, -10.471212183597732], [299.9121284575481, -8.726551670802664], [346.296674510825, -10.0762041171456], [346.23219343430793, -12.090694617541624], [299.85628426865776, -10.471212183597732]]]}}, {"type": "Feature", "properties": {"name": "19", "coordinate_units": "m"}, "geometry": {"type": "Polygon", "coordinates": [[[299.9121284575481, -8.726551670802664], [299.95782173521013, -6.981595796656941], [346.3494347315712, -8.06137257467823], [346.296674510825, -10.0762041171456], [299.9121284575481, -8.726551670802664]]]}}, {"type": "Feature", "properties": {"name": "20", "coordinate_units": "m"}, "geometry": {"type": "Polygon", "coordinates": [[[299.95782173521013, -6.981595796656941], [299.99336255509627, -5.236403621433538], [346.390472310809, -6.046268184701143], [346.3494347315712, -8.06137257467823], [299.95782173521013, -6.981595796656941]]]}}, {"type": "Feature", "properties": {"name": "21", "coordinate_units": "m"}, "geometry": {"type": "Polygon", "coordinates": [[[299.99336255509627, -5.236403621433538], [300.0187497142818, -3.491034213403347], [346.41978585956883, -4.030959151010843], [346.390472310809, -6.046268184701143], [299.99336255509627, -5.236403621433538]]]}}, {"type": "Feature", "properties": {"name": "22", "coordinate_units": "m"}, "geometry": {"type": "Polygon", "coordinates": [[[300.0187497142818, -3.491034213403347], [300.0339823535056, -1.7455466468359286], [346.4373743856961, -2.015513684330262], [346.41978585956883, -4.030959151010843], [300.0187497142818, -3.491034213403347]]]}}, {"type": "Feature", "properties": {"name": "23", "coordinate_units": "m"}, "geometry": {"type": "Polygon", "coordinates": [[[346.44323729388435, -8.485412032764048e-14], [346.4373743856961, -2.015513684330262], [300.0339823535056, -1.7455466468359286], [300.0390599571996, -7.348837487915305e-14], [342.72842803869577, -8.394425447487855e-14], [346.44323729388435, -8.485412032764048e-14]]]}}, {"type": "Feature", "properties": {"name": "24", "coordinate_units": "m"}, "geometry": {"type": "Polygon", "coordinates": [[[346.23219343430793, -12.090694617541624], [346.296674510825, -10.0762041171456], [387.1633876783493, -11.265304024196382], [387.09129714481827, -13.517525959855764], [346.23219343430793, -12.090694617541624]]]}}, {"type": "Feature", "properties": {"name": "25", "coordinate_units": "m"}, "geometry": {"type": "Polygon", "coordinates": [[[346.296674510825, -10.0762041171456], [346.3494347315712, -8.06137257467823], [387.2223741697085, -9.012700799851885], [387.1633876783493, -11.265304024196382], [346.296674510825, -10.0762041171456]]]}}, {"type": "Feature", "properties": {"name": "26", "coordinate_units": "m"}, "geometry": {"type": "Polygon", "coordinates": [[[346.3494347315712, -8.06137257467823], [346.390472310809, -6.046268184701143], [387.2682546224222, -6.759792529071898], [387.2223741697085, -9.012700799851885], [346.3494347315712, -8.06137257467823]]]}}, {"type": "Feature", "properties": {"name": "27", "coordinate_units": "m"}, "geometry": {"type": "Polygon", "coordinates": [[[346.390472310809, -6.046268184701143], [346.41978585956883, -4.030959151010843], [387.3010274836077, -4.506655464430733], [387.2682546224222, -6.759792529071898], [346.390472310809, -6.046268184701143]]]}}, {"type": "Feature", "properties": {"name": "28", "coordinate_units": "m"}, "geometry": {"type": "Polygon", "coordinates": [[[346.41978585956883, -4.030959151010843], [346.4373743856961, -2.015513684330262], [387.3206916440254, -2.253365866246523], [387.3010274836077, -4.506655464430733], [346.41978585956883, -4.030959151010843]]]}}, {"type": "Feature", "properties": {"name": "29", "coordinate_units": "m"}, "geometry": {"type": "Polygon", "coordinates": [[[356.0305826820409, -8.720234269602569e-14], [387.3272464381164, -9.486781451459946e-14], [387.3206916440254, -2.253365866246523], [346.4373743856961, -2.015513684330262], [346.44323729388435, -8.485412032764048e-14], [356.0305826820409, -8.720234269602569e-14]]]}}, {"type": "Feature", "properties": {"name": "30", "coordinate_units": "m"}, "geometry": {"type": "Polygon", "coordinates": [[[387.09129714481827, -13.517525959855764], [387.1633876783493, -11.265304024196382], [424.1103520782006, -12.340350890666294], [424.03138195207197, -14.807502146415478], [387.09129714481827, -13.517525959855764]]]}}, {"type": "Feature", "properties": {"name": "31", "coordinate_units": "m"}, "geometry": {"type": "Polygon", "coordinates": [[[387.1633876783493, -11.265304024196382], [387.2223741697085, -9.012700799851885], [424.1749676446885, -9.872781959889892], [424.1103520782006, -12.340350890666294], [387.1633876783493, -11.265304024196382]]]}}, {"type": "Feature", "properties": {"name": "32", "coordinate_units": "m"}, "geometry": {"type": "Polygon", "coordinates": [[[387.2223741697085, -9.012700799851885], [387.2682546224222, -6.759792529071898], [424.2252264645387, -7.4048788721263525], [424.1749676446885, -9.872781959889892], [387.2223741697085, -9.012700799851885]]]}}, {"type": "Feature", "properties": {"name": "33", "coordinate_units": "m"}, "geometry": {"type": "Polygon", "coordinates": [[[387.2682546224222, -6.759792529071898], [387.3010274836077, -4.506655464430733], [424.261126836677, -4.936725156725734], [424.2252264645387, -7.4048788721263525], [387.2682546224222, -6.759792529071898]]]}}, {"type": "Feature", "properties": {"name": "34", "coordinate_units": "m"}, "geometry": {"type": "Polygon", "coordinates": [[[387.3010274836077, -4.506655464430733], [387.3206916440254, -2.253365866246523], [424.2826675460093, -2.4684043515209044], [424.261126836677, -4.936725156725734], [387.3010274836077, -4.506655464430733]]]}}, {"type": "Feature", "properties": {"name": "35", "coordinate_units": "m"}, "geometry": {"type": "Polygon", "coordinates": [[[417.5388139993144, -1.022675144168085e-13], [424.28984786346234, -1.0392104081934132e-13], [424.2826675460093, -2.4684043515209044], [387.3206916440254, -2.253365866246523], [387.3272464381164, -9.486781451459946e-14], [417.5388139993144, -1.022675144168085e-13]]]}}, {"type": "Feature", "properties": {"name": "36", "coordinate_units": "m"}, "geometry": {"type": "Polygon", "coordinates": [[[424.03138195207197, -14.807502146415478], [424.1103520782006, -12.340350890666294], [458.08699252567163, -13.328970157216258], [458.00169588671815, -15.993771648889558], [424.03138195207197, -14.807502146415478]]]}}, {"type": "Feature", "properties": {"name": "37", "coordinate_units": "m"}, "geometry": {"type": "Polygon", "coordinates": [[[424.1103520782006, -12.340350890666294], [424.1749676446885, -9.872781959889892], [458.156784621945, -10.66371752942677], [458.08699252567163, -13.328970157216258], [424.1103520782006, -12.340350890666294]]]}}, {"type": "Feature", "properties": {"name": "38", "coordinate_units": "m"}, "geometry": {"type": "Polygon", "coordinates": [[[424.1749676446885, -9.872781959889892], [424.2252264645387, -7.4048788721263525], [458.21106981333514, -7.998103974419827], [458.156784621945, -10.66371752942677], [424.1749676446885, -9.872781959889892]]]}}, {"type": "Feature", "properties": {"name": "39", "coordinate_units": "m"}, "geometry": {"type": "Polygon", "coordinates": [[[424.2252264645387, -7.4048788721263525], [424.261126836677, -4.936725156725734], [458.24984626248994, -5.332219713310213], [458.21106981333514, -7.998103974419827], [424.2252264645387, -7.4048788721263525]]]}}, {"type": "Feature", "properties": {"name": "40", "coordinate_units": "m"}, "geometry": {"type": "Polygon", "coordinates": [[[424.261126836677, -4.936725156725734], [424.2826675460093, -2.4684043515209044], [458.2731126569708, -2.666154976375104], [458.24984626248994, -5.332219713310213], [424.261126836677, -4.936725156725734]]]}}, {"type": "Feature", "properties": {"name": "41", "coordinate_units": "m"}, "geometry": {"type": "Polygon", "coordinates": [[[425.5269753934636, -1.0422404967329194e-13], [458.2808682092966, -1.1224643967259702e-13], [458.2731126569708, -2.666154976375104], [424.2826675460093, -2.4684043515209044], [424.28984786346234, -1.0392104081934132e-13], [425.5269753934636, -1.0422404967329194e-13]]]}}, {"type": "Feature", "properties": {"name": "42", "coordinate_units": "m"}, "geometry": {"type": "Polygon", "coordinates": [[[458.00169588671815, -15.993771648889558], [458.08699252567163, -13.328970157216258], [489.71195074506215, -14.249162459567748], [489.6207654808319, -17.097933889729127], [458.00169588671815, -15.993771648889558]]]}}, {"type": "Feature", "properties": {"name": "43", "coordinate_units": "m"}, "geometry": {"type": "Polygon", "coordinates": [[[458.08699252567163, -13.328970157216258], [458.156784621945, -10.66371752942677], [489.7865610792788, -11.399908748199707], [489.71195074506215, -14.249162459567748], [458.08699252567163, -13.328970157216258]]]}}, {"type": "Feature", "properties": {"name": "44", "coordinate_units": "m"}, "geometry": {"type": "Polygon", "coordinates": [[[458.156784621945, -10.66371752942677], [458.21106981333514, -7.998103974419827], [489.8445939581991, -8.550269192276767], [489.7865610792788, -11.399908748199707], [458.156784621945, -10.66371752942677]]]}}, {"type": "Feature", "properties": {"name": "45", "coordinate_units": "m"}, "geometry": {"type": "Polygon", "coordinates": [[[458.21106981333514, -7.998103974419827], [458.24984626248994, -5.332219713310213], [489.88604741762583, -5.700340241510096], [489.8445939581991, -8.550269192276767], [458.21106981333514, -7.998103974419827]]]}}, {"type": "Feature", "properties": {"name": "46", "coordinate_units": "m"}, "geometry": {"type": "Polygon", "coordinates": [[[458.24984626248994, -5.332219713310213], [458.2731126569708, -2.666154976375104], [489.91092005451344, -2.8502183554057967], [489.88604741762583, -5.700340241510096], [458.24984626248994, -5.332219713310213]]]}}, {"type": "Feature", "properties": {"name": "47", "coordinate_units": "m"}, "geometry": {"type": "Polygon", "coordinates": [[[489.9192110270155, -1.1999559872500623e-13], [489.91092005451344, -2.8502183554057967], [458.2731126569708, -2.666154976375104], [458.2808682092966, -1.1224643967259702e-13], [479.93326076756006, -1.1754974632066887e-13], [489.9192110270155, -1.1999559872500623e-13]]]}}, {"type": "Feature", "properties": {"name": "48", "coordinate_units": "m"}, "geometry": {"type": "Polygon", "coordinates": [[[489.6207654808319, -17.097933889729127], [489.71195074506215, -14.249162459567748], [519.4149561611156, -15.113431646927445], [519.3182401427489, -18.134992556884946], [489.6207654808319, -17.097933889729127]]]}}, {"type": "Feature", "properties": {"name": "49", "coordinate_units": "m"}, "geometry": {"type": "Polygon", "coordinates": [[[489.71195074506215, -14.249162459567748], [489.7865610792788, -11.399908748199707], [519.4940919130967, -12.091359203462476], [519.4149561611156, -15.113431646927445], [489.71195074506215, -14.249162459567748]]]}}, {"type": "Feature", "properties": {"name": "50", "coordinate_units": "m"}, "geometry": {"type": "Polygon", "coordinates": [[[489.7865610792788, -11.399908748199707], [489.8445939581991, -8.550269192276767], [519.5556447202406, -9.068877512413772], [519.4940919130967, -12.091359203462476], [489.7865610792788, -11.399908748199707]]]}}, {"type": "Feature", "properties": {"name": "51", "coordinate_units": "m"}, "geometry": {"type": "Polygon", "coordinates": [[[489.8445939581991, -8.550269192276767], [489.88604741762583, -5.700340241510096], [519.5996124992138, -6.046088873556584], [519.5556447202406, -9.068877512413772], [489.8445939581991, -8.550269192276767]]]}}, {"type": "Feature", "properties": {"name": "52", "coordinate_units": "m"}, "geometry": {"type": "Polygon", "coordinates": [[[489.88604741762583, -5.700340241510096], [489.91092005451344, -2.8502183554057967], [519.6259937618702, -3.023095597055197], [519.5996124992138, -6.046088873556584], [489.88604741762583, -5.700340241510096]]]}}, {"type": "Feature", "properties": {"name": "53", "coordinate_units": "m"}, "geometry": {"type": "Polygon", "coordinates": [[[519.634787615302, -1.2727381587573885e-13], [519.6259937618702, -3.023095597055197], [489.91092005451344, -2.8502183554057967], [489.9192110270155, -1.1999559872500623e-13], [519.634787615302, -1.2727381587573885e-13]]]}}, {"type": "Feature", "properties": {"name": "54", "coordinate_units": "m"}, "geometry": {"type": "Polygon", "coordinates": [[[519.3182401427489, -18.134992556884946], [519.4149561611156, -15.113431646927445], [547.5089028181853, -15.93088200613956], [547.4069556553768, -19.1158721166207], [519.3182401427489, -18.134992556884946]]]}}, {"type": "Feature", "properties": {"name": "55", "coordinate_units": "m"}, "geometry": {"type": "Polygon", "coordinates": [[[519.4149561611156, -15.113431646927445], [519.4940919130967, -12.091359203462476], [547.5923188388965, -12.745352694493517], [547.5089028181853, -15.93088200613956], [519.4149561611156, -15.113431646927445]]]}}, {"type": "Feature", "properties": {"name": "56", "coordinate_units": "m"}, "geometry": {"type": "Polygon", "coordinates": [[[519.4940919130967, -12.091359203462476], [519.5556447202406, -9.068877512413772], [547.6572008941878, -9.559392000013975], [547.5923188388965, -12.745352694493517], [519.4940919130967, -12.091359203462476]]]}}, {"type": "Feature", "properties": {"name": "57", "coordinate_units": "m"}, "geometry": {"type": "Polygon", "coordinates": [[[519.5556447202406, -9.068877512413772], [519.5996124992138, -6.046088873556584], [547.7035467880428, -6.373107755633043], [547.6572008941878, -9.559392000013975], [519.5556447202406, -9.068877512413772]]]}}, {"type": "Feature", "properties": {"name": "58", "coordinate_units": "m"}, "geometry": {"type": "Polygon", "coordinates": [[[519.5996124992138, -6.046088873556584], [519.6259937618702, -3.023095597055197], [547.7313549518252, -3.1866078052337903], [547.7035467880428, -6.373107755633043], [519.5996124992138, -6.046088873556584]]]}}, {"type": "Feature", "properties": {"name": "59", "coordinate_units": "m"}, "geometry": {"type": "Polygon", "coordinates": [[[528.8989243167866, -1.295428749474062e-13], [547.740624444332, -1.3415776049774473e-13], [547.7313549518252, -3.1866078052337903], [519.6259937618702, -3.023095597055197], [519.634787615302, -1.2727381587573885e-13], [528.8989243167866, -1.295428749474062e-13]]]}}, {"type": "Feature", "properties": {"name": "60", "coordinate_units": "m"}, "geometry": {"type": "Polygon", "coordinates": [[[547.4069556553768, -19.1158721166207], [547.5089028181853, -15.93088200613956], [574.2300067451131, -16.708386721665693], [574.1230840636995, -20.048819878479666], [547.4069556553768, -19.1158721166207]]]}}, {"type": "Feature", "properties": {"name": "61", "coordinate_units": "m"}, "geometry": {"type": "Polygon", "coordinates": [[[547.5089028181853, -15.93088200613956], [547.5923188388965, -12.745352694493517], [574.3174938743434, -13.367388048041011], [574.2300067451131, -16.708386721665693], [547.5089028181853, -15.93088200613956]]]}}, {"type": "Feature", "properties": {"name": "62", "coordinate_units": "m"}, "geometry": {"type": "Polygon", "coordinates": [[[547.5923188388965, -12.745352694493517], [547.6572008941878, -9.559392000013975], [574.3855424902761, -10.025936937997276], [574.3174938743434, -13.367388048041011], [547.5923188388965, -12.745352694493517]]]}}, {"type": "Feature", "properties": {"name": "63", "coordinate_units": "m"}, "geometry": {"type": "Polygon", "coordinates": [[[547.6572008941878, -9.559392000013975], [547.7035467880428, -6.373107755633043], [574.4341502897181, -6.684146487239443], [574.3855424902761, -10.025936937997276], [547.6572008941878, -9.559392000013975]]]}}, {"type": "Feature", "properties": {"name": "64", "coordinate_units": "m"}, "geometry": {"type": "Polygon", "coordinates": [[[547.7035467880428, -6.373107755633043], [547.7313549518252, -3.1866078052337903], [574.4633156274764, -3.3421298029578845], [574.4341502897181, -6.684146487239443], [547.7035467880428, -6.373107755633043]]]}}, {"type": "Feature", "properties": {"name": "65", "coordinate_units": "m"}, "geometry": {"type": "Polygon", "coordinates": [[[547.7313549518252, -3.1866078052337903], [547.740624444332, -1.3415776049774473e-13], [574.4730375164124, -1.4070531331818637e-13], [574.4633156274764, -3.3421298029578845], [547.7313549518252, -3.1866078052337903]]]}}, {"type": "Feature", "properties": {"name": "66", "coordinate_units": "m"}, "geometry": {"type": "Polygon", "coordinates": [[[574.1230840636995, -20.048819878479666], [574.2300067451131, -16.708386721665693], [599.7617882358063, -17.451285688680006], [599.6501114898084, -20.940243319036334], [574.1230840636995, -20.048819878479666]]]}}, {"type": "Feature", "properties": {"name": "67", "coordinate_units": "m"}, "geometry": {"type": "Polygon", "coordinates": [[[574.2300067451131, -16.708386721665693], [574.3174938743434, -13.367388048041011], [599.8531652736804, -13.96173739714317], [599.7617882358063, -17.451285688680006], [574.2300067451131, -16.708386721665693]]]}}, {"type": "Feature", "properties": {"name": "68", "coordinate_units": "m"}, "geometry": {"type": "Polygon", "coordinates": [[[574.3174938743434, -13.367388048041011], [574.3855424902761, -10.025936937997276], [599.9242395106573, -10.47171655267011], [599.8531652736804, -13.96173739714317], [574.3174938743434, -13.367388048041011]]]}}, {"type": "Feature", "properties": {"name": "69", "coordinate_units": "m"}, "geometry": {"type": "Polygon", "coordinates": [[[574.3855424902761, -10.025936937997276], [574.4341502897181, -6.684146487239443], [599.9750085411384, -6.981341279499285], [599.9242395106573, -10.47171655267011], [574.3855424902761, -10.025936937997276]]]}}, {"type": "Feature", "properties": {"name": "70", "coordinate_units": "m"}, "geometry": {"type": "Polygon", "coordinates": [[[574.4341502897181, -6.684146487239443], [574.4633156274764, -3.3421298029578845], [600.0054706467806, -3.49072971386524], [599.9750085411384, -6.981341279499285], [574.4341502897181, -6.684146487239443]]]}}, {"type": "Feature", "properties": {"name": "71", "coordinate_units": "m"}, "geometry": {"type": "Polygon", "coordinates": [[[574.4633156274764, -3.3421298029578845], [574.4730375164124, -1.4070531331818637e-13], [600.0156247965548, -1.4696144286910002e-13], [600.0054706467806, -3.49072971386524], [574.4633156274764, -3.3421298029578845]]]}}, {"type": "Feature", "properties": {"name": "72", "coordinate_units": "m"}, "geometry": {"type": "Polygon", "coordinates": [[[599.6501114898084, -20.940243319036334], [599.7617882358063, -17.451285688680006], [624.2501939199791, -18.163825520388617], [624.1339573878876, -21.795238057914624], [599.6501114898084, -20.940243319036334]]]}}, {"type": "Feature", "properties": {"name": "73", "coordinate_units": "m"}, "geometry": {"type": "Polygon", "coordinates": [[[599.7617882358063, -17.451285688680006], [599.8531652736804, -13.96173739714317], [624.3453019024008, -14.531798204856223], [624.2501939199791, -18.163825520388617], [599.7617882358063, -17.451285688680006]]]}}, {"type": "Feature", "properties": {"name": "74", "coordinate_units": "m"}, "geometry": {"type": "Polygon", "coordinates": [[[599.8531652736804, -13.96173739714317], [599.9242395106573, -10.47171655267011], [624.4192781161008, -10.899279041947322], [624.3453019024008, -14.531798204856223], [599.8531652736804, -13.96173739714317]]]}}, {"type": "Feature", "properties": {"name": "75", "coordinate_units": "m"}, "geometry": {"type": "Polygon", "coordinates": [[[599.9242395106573, -10.47171655267011], [599.9750085411384, -6.981341279499285], [624.4721200572591, -7.266390978938997], [624.4192781161008, -10.899279041947322], [599.9242395106573, -10.47171655267011]]]}}, {"type": "Feature", "properties": {"name": "76", "coordinate_units": "m"}, "geometry": {"type": "Polygon", "coordinates": [[[599.9750085411384, -6.981341279499285], [600.0054706467806, -3.49072971386524], [624.5038259373724, -3.633256975594225], [624.4721200572591, -7.266390978938997], [599.9750085411384, -6.981341279499285]]]}}, {"type": "Feature", "properties": {"name": "77", "coordinate_units": "m"}, "geometry": {"type": "Polygon", "coordinates": [[[600.0054706467806, -3.49072971386524], [600.0156247965548, -1.4696144286910002e-13], [624.5143946833144, -1.5296191089407358e-13], [624.5038259373724, -3.633256975594225], [600.0054706467806, -3.49072971386524]]]}}, {"type": "Feature", "properties": {"name": "78", "coordinate_units": "m"}, "geometry": {"type": "Polygon", "coordinates": [[[624.1339573878876, -21.795238057914624], [624.2501939199791, -18.163825520388617], [647.8135585108197, -18.849449405282748], [647.6929344369843, -22.617935664907503], [624.1339573878876, -21.795238057914624]]]}}, {"type": "Feature", "properties": {"name": "79", "coordinate_units": "m"}, "geometry": {"type": "Polygon", "coordinates": [[[624.2501939199791, -18.163825520388617], [624.3453019024008, -14.531798204856223], [647.9122565026432, -15.080325161830533], [647.8135585108197, -18.849449405282748], [624.2501939199791, -18.163825520388617]]]}}, {"type": "Feature", "properties": {"name": "80", "coordinate_units": "m"}, "geometry": {"type": "Polygon", "coordinates": [[[624.3453019024008, -14.531798204856223], [624.4192781161008, -10.899279041947322], [647.9890250718946, -11.310690505402365], [647.9122565026432, -15.080325161830533], [624.3453019024008, -14.531798204856223]]]}}, {"type": "Feature", "properties": {"name": "81", "coordinate_units": "m"}, "geometry": {"type": "Polygon", "coordinates": [[[624.4192781161008, -10.899279041947322], [624.4721200572591, -7.266390978938997], [648.043861620243, -7.540673024125326], [647.9890250718946, -11.310690505402365], [624.4192781161008, -10.899279041947322]]]}}, {"type": "Feature", "properties": {"name": "82", "coordinate_units": "m"}, "geometry": {"type": "Polygon", "coordinates": [[[624.4721200572591, -7.266390978938997], [624.5038259373724, -3.633256975594225], [648.0767642916751, -3.7704003190837034], [648.043861620243, -7.540673024125326], [624.4721200572591, -7.266390978938997]]]}}, {"type": "Feature", "properties": {"name": "83", "coordinate_units": "m"}, "geometry": {"type": "Polygon", "coordinates": [[[624.5038259373724, -3.633256975594225], [624.5143946833144, -1.5296191089407358e-13], [648.0877319725574, -1.5873571330537204e-13], [648.0767642916751, -3.7704003190837034], [624.5038259373724, -3.633256975594225]]]}}, {"type": "Feature", "properties": {"name": "84", "coordinate_units": "m"}, "geometry": {"type": "Polygon", "coordinates": [[[647.6929344369843, -22.617935664907503], [647.8135585108197, -18.849449405282748], [670.5494080019537, -19.51099505995292], [670.4245504712051, -23.41174118861344], [647.6929344369843, -22.617935664907503]]]}}, {"type": "Feature", "properties": {"name": "85", "coordinate_units": "m"}, "geometry": {"type": "Polygon", "coordinates": [[[647.8135585108197, -18.849449405282748], [647.9122565026432, -15.080325161830533], [670.6515699266599, -15.609588556602493], [670.5494080019537, -19.51099505995292], [647.8135585108197, -18.849449405282748]]]}}, {"type": "Feature", "properties": {"name": "86", "coordinate_units": "m"}, "geometry": {"type": "Polygon", "coordinates": [[[647.9122565026432, -15.080325161830533], [647.9890250718946, -11.310690505402365], [670.7310327875223, -11.707653726676671], [670.6515699266599, -15.609588556602493], [647.9122565026432, -15.080325161830533]]]}}, {"type": "Feature", "properties": {"name": "87", "coordinate_units": "m"}, "geometry": {"type": "Polygon", "coordinates": [[[647.9890250718946, -11.310690505402365], [648.043861620243, -7.540673024125326], [670.787793895018, -7.8053226361718515], [670.7310327875223, -11.707653726676671], [647.9890250718946, -11.310690505402365]]]}}, {"type": "Feature", "properties": {"name": "88", "coordinate_units": "m"}, "geometry": {"type": "Polygon", "coordinates": [[[648.043861620243, -7.540673024125326], [648.0767642916751, -3.7704003190837034], [670.8218513279949, -3.9027273644963825], [670.787793895018, -7.8053226361718515], [648.043861620243, -7.540673024125326]]]}}, {"type": "Feature", "properties": {"name": "89", "coordinate_units": "m"}, "geometry": {"type": "Polygon", "coordinates": [[[670.8332039337349, -1.643067471918424e-13], [670.8218513279949, -3.9027273644963825], [648.0767642916751, -3.7704003190837034], [648.0877319725574, -1.5873571330537204e-13], [653.2813388903685, -1.600077801229574e-13], [670.8332039337349, -1.643067471918424e-13]]]}}, {"type": "Feature", "properties": {"name": "90", "coordinate_units": "m"}, "geometry": {"type": "Polygon", "coordinates": [[[670.4245504712051, -23.41174118861344], [670.5494080019537, -19.51099505995292], [692.539248384588, -20.150834066526887], [692.4102963051918, -24.17950035098624], [670.4245504712051, -23.41174118861344]]]}}, {"type": "Feature", "properties": {"name": "91", "coordinate_units": "m"}, "geometry": {"type": "Polygon", "coordinates": [[[670.5494080019537, -19.51099505995292], [670.6515699266599, -15.609588556602493], [692.644760583548, -16.12148575120457], [692.539248384588, -20.150834066526887], [670.5494080019537, -19.51099505995292]]]}}, {"type": "Feature", "properties": {"name": "92", "coordinate_units": "m"}, "geometry": {"type": "Polygon", "coordinates": [[[670.6515699266599, -15.609588556602493], [670.7310327875223, -11.707653726676671], [692.7268293308757, -12.09159178348877], [692.644760583548, -16.12148575120457], [670.6515699266599, -15.609588556602493]]]}}, {"type": "Feature", "properties": {"name": "93", "coordinate_units": "m"}, "geometry": {"type": "Polygon", "coordinates": [[[670.7310327875223, -11.707653726676671], [670.787793895018, -7.8053226361718515], [692.7854518488491, -8.061288560317267], [692.7268293308757, -12.09159178348877], [670.7310327875223, -11.707653726676671]]]}}, {"type": "Feature", "properties": {"name": "94", "coordinate_units": "m"}, "geometry": {"type": "Polygon", "coordinates": [[[670.787793895018, -7.8053226361718515], [670.8218513279949, -3.9027273644963825], [692.8206261533137, -4.030712492479621], [692.7854518488491, -8.061288560317267], [670.787793895018, -7.8053226361718515]]]}}, {"type": "Feature", "properties": {"name": "95", "coordinate_units": "m"}, "geometry": {"type": "Polygon", "coordinates": [[[676.2815533566161, -1.6564120792811596e-13], [692.83235105375, -1.6969498421274207e-13], [692.8206261533137, -4.030712492479621], [670.8218513279949, -3.9027273644963825], [670.8332039337349, -1.643067471918424e-13], [676.2815533566161, -1.6564120792811596e-13]]]}}, {"type": "Feature", "properties": {"name": "96", "coordinate_units": "m"}, "geometry": {"type": "Polygon", "coordinates": [[[692.4102963051918, -24.17950035098624], [692.539248384588, -20.150834066526887], [713.8520242560145, -20.770972507898943], [713.7191036986255, -24.923620302116387], [692.4102963051918, -24.17950035098624]]]}}, {"type": "Feature", "properties": {"name": "97", "coordinate_units": "m"}, "geometry": {"type": "Polygon", "coordinates": [[[692.539248384588, -20.150834066526887], [692.644760583548, -16.12148575120457], [713.9607835746914, -16.617621693436412], [713.8520242560145, -20.770972507898943], [692.539248384588, -20.150834066526887]]]}}, {"type": "Feature", "properties": {"name": "98", "coordinate_units": "m"}, "geometry": {"type": "Polygon", "coordinates": [[[692.644760583548, -16.12148575120457], [692.7268293308757, -12.09159178348877], [714.0453779735572, -12.463708434222141], [713.9607835746914, -16.617621693436412], [692.644760583548, -16.12148575120457]]]}}, {"type": "Feature", "properties": {"name": "99", "coordinate_units": "m"}, "geometry": {"type": "Polygon", "coordinates": [[[692.7268293308757, -12.09159178348877], [692.7854518488491, -8.061288560317267], [714.1058045894058, -8.309373324786135], [714.0453779735572, -12.463708434222141], [692.7268293308757, -12.09159178348877]]]}}, {"type": "Feature", "properties": {"name": "100", "coordinate_units": "m"}, "geometry": {"type": "Polygon", "coordinates": [[[692.7854518488491, -8.061288560317267], [692.8206261533137, -4.030712492479621], [714.1420613770212, -4.154756973936463], [714.1058045894058, -8.309373324786135], [692.7854518488491, -8.061288560317267]]]}}, {"type": "Feature", "properties": {"name": "101", "coordinate_units": "m"}, "geometry": {"type": "Polygon", "coordinates": [[[692.8206261533137, -4.030712492479621], [692.83235105375, -1.6969498421274207e-13], [714.1541471092452, -1.7491731807102903e-13], [714.1420613770212, -4.154756973936463], [692.8206261533137, -4.030712492479621]]]}}, {"type": "Feature", "properties": {"name": "102", "coordinate_units": "m"}, "geometry": {"type": "Polygon", "coordinates": [[[713.7191036986255, -24.923620302116387], [713.8520242560145, -20.770972507898943], [734.5466727960375, -21.37312528085415], [734.4098988570996, -25.646158790446425], [713.7191036986255, -24.923620302116387]]]}}, {"type": "Feature", "properties": {"name": "103", "coordinate_units": "m"}, "geometry": {"type": "Polygon", "coordinates": [[[713.8520242560145, -20.770972507898943], [713.9607835746914, -16.617621693436412], [734.6585850593009, -17.099368370382717], [734.5466727960375, -21.37312528085415], [713.8520242560145, -20.770972507898943]]]}}, {"type": "Feature", "properties": {"name": "104", "coordinate_units": "m"}, "geometry": {"type": "Polygon", "coordinates": [[[713.9607835746914, -16.617621693436412], [714.0453779735572, -12.463708434222141], [734.7456318590754, -12.825032709824452], [734.6585850593009, -17.099368370382717], [713.9607835746914, -16.617621693436412]]]}}, {"type": "Feature", "properties": {"name": "105", "coordinate_units": "m"}, "geometry": {"type": "Polygon", "coordinates": [[[714.0453779735572, -12.463708434222141], [714.1058045894058, -8.309373324786135], [734.8078102491503, -8.550262969560217], [734.7456318590754, -12.825032709824452], [714.0453779735572, -12.463708434222141]]]}}, {"type": "Feature", "properties": {"name": "106", "coordinate_units": "m"}, "geometry": {"type": "Polygon", "coordinates": [[[714.1058045894058, -8.309373324786135], [714.1420613770212, -4.154756973936463], [734.8451181250183, -4.2752038346628645], [734.8078102491503, -8.550262969560217], [714.1058045894058, -8.309373324786135]]]}}, {"type": "Feature", "properties": {"name": "107", "coordinate_units": "m"}, "geometry": {"type": "Polygon", "coordinates": [[[714.1420613770212, -4.154756973936463], [714.1541471092452, -1.7491731807102903e-13], [734.8575542239462, -1.7998819032192165e-13], [734.8451181250183, -4.2752038346628645], [714.1420613770212, -4.154756973936463]]]}}, {"type": "Feature", "properties": {"name": "108", "coordinate_units": "m"}, "geometry": {"type": "Polygon", "coordinates": [[[734.4098988570996, -25.646158790446425], [734.5466727960375, -21.37312528085415], [754.6740465240927, -21.95877204258654], [754.5335248312173, -26.348891294426732], [734.4098988570996, -25.646158790446425]]]}}, {"type": "Feature", "properties": {"name": "109", "coordinate_units": "m"}, "geometry": {"type": "Polygon", "coordinates": [[[734.5466727960375, -21.37312528085415], [734.6585850593009, -17.099368370382717], [754.7890253044759, -17.56790956790026], [754.6740465240927, -21.95877204258654], [734.5466727960375, -21.37312528085415]]]}}, {"type": "Feature", "properties": {"name": "110", "coordinate_units": "m"}, "geometry": {"type": "Polygon", "coordinates": [[[734.6585850593009, -17.099368370382717], [734.7456318590754, -12.825032709824452], [754.8784572807624, -13.17645248474847], [754.7890253044759, -17.56790956790026], [734.6585850593009, -17.099368370382717]]]}}, {"type": "Feature", "properties": {"name": "111", "coordinate_units": "m"}, "geometry": {"type": "Polygon", "coordinates": [[[734.7456318590754, -12.825032709824452], [734.8078102491503, -8.550262969560217], [754.9423394260122, -8.784549427637028], [754.8784572807624, -13.17645248474847], [734.7456318590754, -12.825032709824452]]]}}, {"type": "Feature", "properties": {"name": "112", "coordinate_units": "m"}, "geometry": {"type": "Polygon", "coordinates": [[[734.8078102491503, -8.550262969560217], [734.8451181250183, -4.2752038346628645], [754.9806695780518, -4.392349046166352], [754.9423394260122, -8.784549427637028], [734.8078102491503, -8.550262969560217]]]}}, {"type": "Feature", "properties": {"name": "113", "coordinate_units": "m"}, "geometry": {"type": "Polygon", "coordinates": [[[734.8451181250183, -4.2752038346628645], [734.8575542239462, -1.7998819032192165e-13], [754.993446439548, -1.8492006151188423e-13], [754.9806695780518, -4.392349046166352], [734.8451181250183, -4.2752038346628645]]]}}, {"type": "Feature", "properties": {"name": "114", "coordinate_units": "m"}, "geometry": {"type": "Polygon", "coordinates": [[[754.5335248312173, -26.348891294426732], [754.6740465240927, -21.95877204258654], [774.2783856458658, -22.529200051610207], [774.1342135890567, -27.03336242841873], [754.5335248312173, -26.348891294426732]]]}}, {"type": "Feature", "properties": {"name": "115", "coordinate_units": "m"}, "geometry": {"type": "Polygon", "coordinates": [[[754.6740465240927, -21.95877204258654], [754.7890253044759, -17.56790956790026], [774.396351256143, -18.024275145086914], [774.2783856458658, -22.529200051610207], [754.6740465240927, -21.95877204258654]]]}}, {"type": "Feature", "properties": {"name": "116", "coordinate_units": "m"}, "geometry": {"type": "Polygon", "coordinates": [[[754.7890253044759, -17.56790956790026], [754.8784572807624, -13.17645248474847], [774.4881064271909, -13.518740183818947], [774.396351256143, -18.024275145086914], [754.7890253044759, -17.56790956790026]]]}}, {"type": "Feature", "properties": {"name": "117", "coordinate_units": "m"}, "geometry": {"type": "Polygon", "coordinates": [[[754.8784572807624, -13.17645248474847], [754.9423394260122, -8.784549427637028], [774.5536480534379, -9.012747663424477], [774.4881064271909, -13.518740183818947], [754.8784572807624, -13.17645248474847]]]}}, {"type": "Feature", "properties": {"name": "118", "coordinate_units": "m"}, "geometry": {"type": "Polygon", "coordinates": [[[754.9423394260122, -8.784549427637028], [754.9806695780518, -4.392349046166352], [774.5929739165433, -4.5064500950083595], [774.5536480534379, -9.012747663424477], [754.9423394260122, -8.784549427637028]]]}}, {"type": "Feature", "properties": {"name": "119", "coordinate_units": "m"}, "geometry": {"type": "Polygon", "coordinates": [[[765.1906916024042, -1.8741766624164675e-13], [774.6060826854728, -1.8972377195216683e-13], [774.5929739165433, -4.5064500950083595], [754.9806695780518, -4.392349046166352], [754.993446439548, -1.8492006151188423e-13], [765.1906916024042, -1.8741766624164675e-13]]]}}, {"type": "Feature", "properties": {"name": "120", "coordinate_units": "m"}, "geometry": {"type": "Polygon", "coordinates": [[[774.1342135890567, -27.03336242841873], [774.2783856458658, -22.529200051610207], [793.3984626022963, -23.085537470734064], [793.2507303520578, -27.70092590378462], [774.1342135890567, -27.03336242841873]]]}}, {"type": "Feature", "properties": {"name": "121", "coordinate_units": "m"}, "geometry": {"type": "Polygon", "coordinates": [[[774.2783856458658, -22.529200051610207], [774.396351256143, -18.024275145086914], [793.5193412624385, -18.469367678014166], [793.3984626022963, -23.085537470734064], [774.2783856458658, -22.529200051610207]]]}}, {"type": "Feature", "properties": {"name": "122", "coordinate_units": "m"}, "geometry": {"type": "Polygon", "coordinates": [[[774.396351256143, -18.024275145086914], [774.4881064271909, -13.518740183818947], [793.6133622411909, -13.852572765821087], [793.5193412624385, -18.469367678014166], [774.396351256143, -18.024275145086914]]]}}, {"type": "Feature", "properties": {"name": "123", "coordinate_units": "m"}, "geometry": {"type": "Polygon", "coordinates": [[[774.4881064271909, -13.518740183818947], [774.5536480534379, -9.012747663424477], [793.6805223562925, -9.235308995508959], [793.6133622411909, -13.852572765821087], [774.4881064271909, -13.518740183818947]]]}}, {"type": "Feature", "properties": {"name": "124", "coordinate_units": "m"}, "geometry": {"type": "Polygon", "coordinates": [[[774.5536480534379, -9.012747663424477], [774.5929739165433, -4.5064500950083595], [793.7208193346233, -4.617732644301015], [793.6805223562925, -9.235308995508959], [774.5536480534379, -9.012747663424477]]]}}, {"type": "Feature", "properties": {"name": "125", "coordinate_units": "m"}, "geometry": {"type": "Polygon", "coordinates": [[[783.9613117124478, -1.9201514220880192e-13], [793.73425181228, -1.944088221711056e-13], [793.7208193346233, -4.617732644301015], [774.5929739165433, -4.5064500950083595], [774.6060826854728, -1.8972377195216683e-13], [783.9613117124478, -1.9201514220880192e-13]]]}}, {"type": "Feature", "properties": {"name": "126", "coordinate_units": "m"}, "geometry": {"type": "Polygon", "coordinates": [[[793.2507303520578, -27.70092590378462], [793.3984626022963, -23.085537470734064], [812.0684838368048, -23.628779605808248], [811.9172751943385, -28.352776013429274], [793.2507303520578, -27.70092590378462]]]}}, {"type": "Feature", "properties": {"name": "127", "coordinate_units": "m"}, "geometry": {"type": "Polygon", "coordinates": [[[793.3984626022963, -23.085537470734064], [793.5193412624385, -18.469367678014166], [812.1922069783243, -18.90398345179002], [812.0684838368048, -23.628779605808248], [793.3984626022963, -23.085537470734064]]]}}, {"type": "Feature", "properties": {"name": "128", "coordinate_units": "m"}, "geometry": {"type": "Polygon", "coordinates": [[[793.5193412624385, -18.469367678014166], [793.6133622411909, -13.852572765821087], [812.2884404313284, -14.178547468169477], [812.1922069783243, -18.90398345179002], [793.5193412624385, -18.469367678014166]]]}}, {"type": "Feature", "properties": {"name": "129", "coordinate_units": "m"}, "geometry": {"type": "Polygon", "coordinates": [[[793.6133622411909, -13.852572765821087], [793.6805223562925, -9.235308995508959], [812.357180938672, -9.452631593397367], [812.2884404313284, -14.178547468169477], [793.6133622411909, -13.852572765821087]]]}}, {"type": "Feature", "properties": {"name": "130", "coordinate_units": "m"}, "geometry": {"type": "Polygon", "coordinates": [[[793.6805223562925, -9.235308995508959], [793.7208193346233, -4.617732644301015], [812.3984261737446, -4.7263957821669615], [812.357180938672, -9.452631593397367], [793.6805223562925, -9.235308995508959]]]}}, {"type": "Feature", "properties": {"name": "131", "coordinate_units": "m"}, "geometry": {"type": "Polygon", "coordinates": [[[793.7208193346233, -4.617732644301015], [793.73425181228, -1.944088221711056e-13], [812.412174740548, -1.9898359387687047e-13], [812.3984261737446, -4.7263957821669615], [793.7208193346233, -4.617732644301015]]]}}, {"type": "Feature", "properties": {"name": "132", "coordinate_units": "m"}, "geometry": {"type": "Polygon", "coordinates": [[[811.9172751943385, -28.352776013429274], [812.0684838368048, -23.628779605808248], [830.318808905547, -24.159809829695533], [830.1642020190493, -28.989972739007786], [811.9172751943385, -28.352776013429274]]]}}, {"type": "Feature", "properties": {"name": "133", "coordinate_units": "m"}, "geometry": {"type": "Polygon", "coordinates": [[[812.0684838368048, -23.628779605808248], [812.1922069783243, -18.90398345179002], [830.4453125854031, -19.328829200586032], [830.318808905547, -24.159809829695533], [812.0684838368048, -23.628779605808248]]]}}, {"type": "Feature", "properties": {"name": "134", "coordinate_units": "m"}, "geometry": {"type": "Polygon", "coordinates": [[[812.1922069783243, -18.90398345179002], [812.2884404313284, -14.178547468169477], [830.5437087769382, -14.497194362424132], [830.4453125854031, -19.328829200586032], [812.1922069783243, -18.90398345179002]]]}}, {"type": "Feature", "properties": {"name": "135", "coordinate_units": "m"}, "geometry": {"type": "Polygon", "coordinates": [[[812.2884404313284, -14.178547468169477], [812.357180938672, -9.452631593397367], [830.6139941498064, -9.66506884809722], [830.5437087769382, -14.497194362424132], [812.2884404313284, -14.178547468169477]]]}}, {"type": "Feature", "properties": {"name": "136", "coordinate_units": "m"}, "geometry": {"type": "Polygon", "coordinates": [[[812.357180938672, -9.452631593397367], [812.3984261737446, -4.7263957821669615], [830.6561663251097, -4.832616207100252], [830.6139941498064, -9.66506884809722], [812.357180938672, -9.452631593397367]]]}}, {"type": "Feature", "properties": {"name": "137", "coordinate_units": "m"}, "geometry": {"type": "Polygon", "coordinates": [[[812.3984261737446, -4.7263957821669615], [812.412174740548, -1.9898359387687047e-13], [830.6702238754759, -2.0345552616322338e-13], [830.6561663251097, -4.832616207100252], [812.3984261737446, -4.7263957821669615]]]}}, {"type": "Feature", "properties": {"name": "138", "coordinate_units": "m"}, "geometry": {"type": "Polygon", "coordinates": [[[830.1642020190493, -28.989972739007786], [830.318808905547, -24.159809829695533], [848.1765302126945, -24.67941645084515], [848.0185981857067, -29.61346199195797], [830.1642020190493, -28.989972739007786]]]}}, {"type": "Feature", "properties": {"name": "139", "coordinate_units": "m"}, "geometry": {"type": "Polygon", "coordinates": [[[830.318808905547, -24.159809829695533], [830.4453125854031, -19.328829200586032], [848.3057546155246, -19.74453560318155], [848.1765302126945, -24.67941645084515], [830.318808905547, -24.159809829695533]]]}}, {"type": "Feature", "properties": {"name": "140", "coordinate_units": "m"}, "geometry": {"type": "Polygon", "coordinates": [[[830.4453125854031, -19.328829200586032], [830.5437087769382, -14.497194362424132], [848.4062670204313, -14.808986476348375], [848.3057546155246, -19.74453560318155], [830.4453125854031, -19.328829200586032]]]}}, {"type": "Feature", "properties": {"name": "141", "coordinate_units": "m"}, "geometry": {"type": "Polygon", "coordinates": [[[830.5437087769382, -14.497194362424132], [830.6139941498064, -9.66506884809722], [848.4780640254429, -9.872936120345592], [848.4062670204313, -14.808986476348375], [830.5437087769382, -14.497194362424132]]]}}, {"type": "Feature", "properties": {"name": "142", "coordinate_units": "m"}, "geometry": {"type": "Polygon", "coordinates": [[[830.6139941498064, -9.66506884809722], [830.6561663251097, -4.832616207100252], [848.5211432004977, -4.936551602137916], [848.4780640254429, -9.872936120345592], [830.6139941498064, -9.66506884809722]]]}}, {"type": "Feature", "properties": {"name": "143", "coordinate_units": "m"}, "geometry": {"type": "Polygon", "coordinates": [[[830.6561663251097, -4.832616207100252], [830.6702238754759, -2.0345552616322338e-13], [848.5355030875255, -2.0783125756380543e-13], [848.5211432004977, -4.936551602137916], [830.6561663251097, -4.832616207100252]]]}}, {"type": "Feature", "properties": {"name": "144", "coordinate_units": "m"}, "geometry": {"type": "Polygon", "coordinates": [[[848.0185981857067, -29.61346199195797], [848.1765302126945, -24.67941645084515], [865.6659450301631, -25.18830644766415], [865.5047564420296, -30.22409209372324], [848.0185981857067, -29.61346199195797]]]}}, {"type": "Feature", "properties": {"name": "145", "coordinate_units": "m"}, "geometry": {"type": "Polygon", "coordinates": [[[848.1765302126945, -24.67941645084515], [848.3057546155246, -19.74453560318155], [865.7978340424291, -20.151668271018664], [865.6659450301631, -25.18830644766415], [848.1765302126945, -24.67941645084515]]]}}, {"type": "Feature", "properties": {"name": "146", "coordinate_units": "m"}, "geometry": {"type": "Polygon", "coordinates": [[[848.3057546155246, -19.74453560318155], [848.4062670204313, -14.808986476348375], [865.9004190148746, -15.11434803527549], [865.7978340424291, -20.151668271018664], [848.3057546155246, -19.74453560318155]]]}}, {"type": "Feature", "properties": {"name": "147", "coordinate_units": "m"}, "geometry": {"type": "Polygon", "coordinates": [[[848.4062670204313, -14.808986476348375], [848.4780640254429, -9.872936120345592], [865.9736964753794, -10.076516235008508], [865.9004190148746, -15.11434803527549], [848.4062670204313, -14.808986476348375]]]}}, {"type": "Feature", "properties": {"name": "148", "coordinate_units": "m"}, "geometry": {"type": "Polygon", "coordinates": [[[848.4780640254429, -9.872936120345592], [848.5211432004977, -4.936551602137916], [866.0176639437736, -5.038343382106149], [865.9736964753794, -10.076516235008508], [848.4780640254429, -9.872936120345592]]]}}, {"type": "Feature", "properties": {"name": "149", "coordinate_units": "m"}, "geometry": {"type": "Polygon", "coordinates": [[[848.5211432004977, -4.936551602137916], [848.5355030875255, -2.0783125756380543e-13], [866.032319931922, -2.1211674171255696e-13], [866.0176639437736, -5.038343382106149], [848.5211432004977, -4.936551602137916]]]}}, {"type": "Feature", "properties": {"name": "150", "coordinate_units": "m"}, "geometry": {"type": "Polygon", "coordinates": [[[865.5047564420296, -30.22409209372324], [865.6659450301631, -25.18830644766415], [882.8089432976338, -25.687116752345574], [882.6445626517522, -30.822627315506185], [865.5047564420296, -30.22409209372324]]]}}, {"type": "Feature", "properties": {"name": "151", "coordinate_units": "m"}, "geometry": {"type": "Polygon", "coordinates": [[[865.6659450301631, -25.18830644766415], [865.7978340424291, -20.151668271018664], [882.9434441408512, -20.550736775723074], [882.8089432976338, -25.687116752345574], [865.6659450301631, -25.18830644766415]]]}}, {"type": "Feature", "properties": {"name": "152", "coordinate_units": "m"}, "geometry": {"type": "Polygon", "coordinates": [[[865.7978340424291, -20.151668271018664], [865.9004190148746, -15.11434803527549], [883.0480606290505, -15.413661233016738], [882.9434441408512, -20.550736775723074], [865.7978340424291, -20.151668271018664]]]}}, {"type": "Feature", "properties": {"name": "153", "coordinate_units": "m"}, "geometry": {"type": "Polygon", "coordinates": [[[865.9004190148746, -15.11434803527549], [865.9736964753794, -10.076516235008508], [883.1227892213523, -10.276063995146943], [883.0480606290505, -15.413661233016738], [865.9004190148746, -15.11434803527549]]]}}, {"type": "Feature", "properties": {"name": "154", "coordinate_units": "m"}, "geometry": {"type": "Polygon", "coordinates": [[[865.9736964753794, -10.076516235008508], [866.0176639437736, -5.038343382106149], [883.1676273884715, -5.13811895069151], [883.1227892213523, -10.276063995146943], [865.9736964753794, -10.076516235008508]]]}}, {"type": "Feature", "properties": {"name": "155", "coordinate_units": "m"}, "geometry": {"type": "Polygon", "coordinates": [[[866.0176639437736, -5.038343382106149], [866.032319931922, -2.1211674171255696e-13], [883.1825736128026, -2.1631734236752807e-13], [883.1676273884715, -5.13811895069151], [866.0176639437736, -5.038343382106149]]]}}, {"type": "Feature", "properties": {"name": "156", "coordinate_units": "m"}, "geometry": {"type": "Polygon", "coordinates": [[[882.6445626517522, -30.822627315506185], [882.8089432976338, -25.687116752345574], [899.62532887175, -26.1764235982654], [899.4578169840032, -31.40975909444885], [882.6445626517522, -30.822627315506185]]]}}, {"type": "Feature", "properties": {"name": "157", "coordinate_units": "m"}, "geometry": {"type": "Polygon", "coordinates": [[[882.8089432976338, -25.687116752345574], [882.9434441408512, -20.550736775723074], [899.7623917846618, -20.942202127401337], [899.62532887175, -26.1764235982654], [882.8089432976338, -25.687116752345574]]]}}, {"type": "Feature", "properties": {"name": "158", "coordinate_units": "m"}, "geometry": {"type": "Polygon", "coordinates": [[[882.9434441408512, -20.550736775723074], [883.0480606290505, -15.413661233016738], [899.8690010836683, -15.707271840805774], [899.7623917846618, -20.942202127401337], [882.9434441408512, -20.550736775723074]]]}}, {"type": "Feature", "properties": {"name": "159", "coordinate_units": "m"}, "geometry": {"type": "Polygon", "coordinates": [[[883.0480606290505, -15.413661233016738], [883.1227892213523, -10.276063995146943], [899.945153160441, -10.471809921418583], [899.8690010836683, -15.707271840805774], [883.0480606290505, -15.413661233016738]]]}}, {"type": "Feature", "properties": {"name": "160", "coordinate_units": "m"}, "geometry": {"type": "Polygon", "coordinates": [[[883.1227892213523, -10.276063995146943], [883.1676273884715, -5.13811895069151], [899.9908454375151, -5.235993570173441], [899.945153160441, -10.471809921418583], [883.1227892213523, -10.276063995146943]]]}}, {"type": "Feature", "properties": {"name": "161", "coordinate_units": "m"}, "geometry": {"type": "Polygon", "coordinates": [[[883.1676273884715, -5.13811895069151], [883.1825736128026, -2.1631734236752807e-13], [900.0060763683765, -2.2043791212754012e-13], [899.9908454375151, -5.235993570173441], [883.1676273884715, -5.13811895069151]]]}}, {"type": "Feature", "properties": {"name": "162", "coordinate_units": "m"}, "geometry": {"type": "Polygon", "coordinates": [[[899.4578169840032, -31.40975909444885], [899.62532887175, -26.1764235982654], [916.133087672814, -26.65675032225457], [915.962502010074, -31.986115395778167], [899.4578169840032, -31.40975909444885]]]}}, {"type": "Feature", "properties": {"name": "163", "coordinate_units": "m"}, "geometry": {"type": "Polygon", "coordinates": [[[899.62532887175, -26.1764235982654], [899.7623917846618, -20.942202127401337], [916.2726656344181, -21.326483016775406], [916.133087672814, -26.65675032225457], [899.62532887175, -26.1764235982654]]]}}, {"type": "Feature", "properties": {"name": "164", "coordinate_units": "m"}, "geometry": {"type": "Polygon", "coordinates": [[[899.7623917846618, -20.942202127401337], [899.8690010836683, -15.707271840805774], [916.3812311706909, -15.99549388908442], [916.2726656344181, -21.326483016775406], [899.7623917846618, -20.942202127401337]]]}}, {"type": "Feature", "properties": {"name": "165", "coordinate_units": "m"}, "geometry": {"type": "Polygon", "coordinates": [[[899.8690010836683, -15.707271840805774], [899.945153160441, -10.471809921418583], [916.4587806070923, -10.663963373356363], [916.3812311706909, -15.99549388908442], [899.8690010836683, -15.707271840805774]]]}}, {"type": "Feature", "properties": {"name": "166", "coordinate_units": "m"}, "geometry": {"type": "Polygon", "coordinates": [[[899.945153160441, -10.471809921418583], [899.9908454375151, -5.235993570173441], [916.5053113188623, -5.332071922089949], [916.4587806070923, -10.663963373356363], [899.945153160441, -10.471809921418583]]]}}, {"type": "Feature", "properties": {"name": "167", "coordinate_units": "m"}, "geometry": {"type": "Polygon", "coordinates": [[[899.9908454375151, -5.235993570173441], [900.0060763683765, -2.2043791212754012e-13], [916.5208217311088, -2.2448285813698086e-13], [916.5053113188623, -5.332071922089949], [899.9908454375151, -5.235993570173441]]]}}, {"type": "Feature", "properties": {"name": "168", "coordinate_units": "m"}, "geometry": {"type": "Polygon", "coordinates": [[[915.962502010074, -31.986115395778167], [916.133087672814, -26.65675032225457], [932.3486130789508, -27.128573922899307], [932.1750080556122, -32.552268582277975], [915.962502010074, -31.986115395778167]]]}}, {"type": "Feature", "properties": {"name": "169", "coordinate_units": "m"}, "geometry": {"type": "Polygon", "coordinates": [[[916.133087672814, -26.65675032225457], [916.2726656344181, -21.326483016775406], [932.4906615658673, -21.703961062089245], [932.3486130789508, -27.128573922899307], [916.133087672814, -26.65675032225457]]]}}, {"type": "Feature", "properties": {"name": "170", "coordinate_units": "m"}, "geometry": {"type": "Polygon", "coordinates": [[[916.2726656344181, -21.326483016775406], [916.3812311706909, -15.99549388908442], [932.6011487085478, -16.27861360283805], [932.4906615658673, -21.703961062089245], [916.2726656344181, -21.326483016775406]]]}}, {"type": "Feature", "properties": {"name": "171", "coordinate_units": "m"}, "geometry": {"type": "Polygon", "coordinates": [[[916.3812311706909, -15.99549388908442], [916.4587806070923, -10.663963373356363], [932.6800707674133, -10.852715172999398], [932.6011487085478, -16.27861360283805], [916.3812311706909, -15.99549388908442]]]}}, {"type": "Feature", "properties": {"name": "172", "coordinate_units": "m"}, "geometry": {"type": "Polygon", "coordinates": [[[916.4587806070923, -10.663963373356363], [916.5053113188623, -5.332071922089949], [932.7274250712454, -5.426449419075276], [932.6800707674133, -10.852715172999398], [916.4587806070923, -10.663963373356363]]]}}, {"type": "Feature", "properties": {"name": "173", "coordinate_units": "m"}, "geometry": {"type": "Polygon", "coordinates": [[[932.7432100172766, -2.2845619731481703e-13], [932.7274250712454, -5.426449419075276], [916.5053113188623, -5.332071922089949], [916.5208217311088, -2.2448285813698086e-13], [926.8689053261489, -2.2701740762737587e-13], [932.7432100172766, -2.2845619731481703e-13]]]}}, {"type": "Feature", "properties": {"name": "174", "coordinate_units": "m"}, "geometry": {"type": "Polygon", "coordinates": [[[932.1750080556122, -32.552268582277975], [932.3486130789508, -27.128573922899307], [948.2868966149235, -27.592330609018973], [948.1103238539313, -33.108742072049274], [932.1750080556122, -32.552268582277975]]]}}, {"type": "Feature", "properties": {"name": "175", "coordinate_units": "m"}, "geometry": {"type": "Polygon", "coordinates": [[[932.3486130789508, -27.128573922899307], [932.4906615658673, -21.703961062089245], [948.4313733878142, -22.074985248116533], [948.2868966149235, -27.592330609018973], [932.3486130789508, -27.128573922899307]]]}}, {"type": "Feature", "properties": {"name": "176", "coordinate_units": "m"}, "geometry": {"type": "Polygon", "coordinates": [[[932.4906615658673, -21.703961062089245], [932.6011487085478, -16.27861360283805], [948.5437492826015, -16.556892730982796], [948.4313733878142, -22.074985248116533], [932.4906615658673, -21.703961062089245]]]}}, {"type": "Feature", "properties": {"name": "177", "coordinate_units": "m"}, "geometry": {"type": "Polygon", "coordinates": [[[932.6011487085478, -16.27861360283805], [932.6800707674133, -10.852715172999398], [948.6240204957787, -11.038239824547057], [948.5437492826015, -16.556892730982796], [932.6011487085478, -16.27861360283805]]]}}, {"type": "Feature", "properties": {"name": "178", "coordinate_units": "m"}, "geometry": {"type": "Polygon", "coordinates": [[[932.6800707674133, -10.852715172999398], [932.7274250712454, -5.426449419075276], [948.6721843104639, -5.51921331470571], [948.6240204957787, -11.038239824547057], [932.6800707674133, -10.852715172999398]]]}}, {"type": "Feature", "properties": {"name": "179", "coordinate_units": "m"}, "geometry": {"type": "Polygon", "coordinates": [[[936.47848018303, -2.2937107464530514e-13], [948.6882390964905, -2.323616030796512e-13], [948.6721843104639, -5.51921331470571], [932.7274250712454, -5.426449419075276], [932.7432100172766, -2.2845619731481703e-13], [936.47848018303, -2.2937107464530514e-13]]]}}, {"type": "Feature", "properties": {"name": "180", "coordinate_units": "m"}, "geometry": {"type": "Polygon", "coordinates": [[[948.1103238539313, -33.108742072049274], [948.2868966149235, -27.592330609018973], [963.9616902516832, -28.048420522100677], [963.7821988153405, -33.65601600508014], [948.1103238539313, -33.108742072049274]]]}}, {"type": "Feature", "properties": {"name": "181", "coordinate_units": "m"}, "geometry": {"type": "Polygon", "coordinates": [[[948.2868966149235, -27.592330609018973], [948.4313733878142, -22.074985248116533], [964.1085551663995, -22.439875704300125], [963.9616902516832, -28.048420522100677], [948.2868966149235, -27.592330609018973]]]}}, {"type": "Feature", "properties": {"name": "182", "coordinate_units": "m"}, "geometry": {"type": "Polygon", "coordinates": [[[948.4313733878142, -22.074985248116533], [948.5437492826015, -16.556892730982796], [964.2227885886574, -16.830571380082077], [964.1085551663995, -22.439875704300125], [948.4313733878142, -22.074985248116533]]]}}, {"type": "Feature", "properties": {"name": "183", "coordinate_units": "m"}, "geometry": {"type": "Polygon", "coordinates": [[[948.5437492826015, -16.556892730982796], [948.6240204957787, -11.038239824547057], [964.3043866520801, -11.220697403556608], [964.2227885886574, -16.830571380082077], [948.5437492826015, -16.556892730982796]]]}}, {"type": "Feature", "properties": {"name": "184", "coordinate_units": "m"}, "geometry": {"type": "Polygon", "coordinates": [[[948.6240204957787, -11.038239824547057], [948.6721843104639, -5.51921331470571], [964.3533465948765, -5.610443648114397], [964.3043866520801, -11.220697403556608], [948.6240204957787, -11.038239824547057]]]}}, {"type": "Feature", "properties": {"name": "185", "coordinate_units": "m"}, "geometry": {"type": "Polygon", "coordinates": [[[948.6721843104639, -5.51921331470571], [948.6882390964905, -2.323616030796512e-13], [964.3696667599343, -2.3620244511847065e-13], [964.3533465948765, -5.610443648114397], [948.6721843104639, -5.51921331470571]]]}}, {"type": "Feature", "properties": {"name": "186", "coordinate_units": "m"}, "geometry": {"type": "Polygon", "coordinates": [[[963.7821988153405, -33.65601600508014], [963.9616902516832, -28.048420522100677], [979.3856453176152, -28.4972117782037], [979.2032819125243, -34.194532093229974], [963.7821988153405, -33.65601600508014]]]}}, {"type": "Feature", "properties": {"name": "187", "coordinate_units": "m"}, "geometry": {"type": "Polygon", "coordinates": [[[963.9616902516832, -28.048420522100677], [964.1085551663995, -22.439875704300125], [979.5348601575081, -22.79892693843979], [979.3856453176152, -28.4972117782037], [963.9616902516832, -28.048420522100677]]]}}, {"type": "Feature", "properties": {"name": "188", "coordinate_units": "m"}, "geometry": {"type": "Polygon", "coordinates": [[[964.1085551663995, -22.439875704300125], [964.2227885886574, -16.830571380082077], [979.6509213818351, -17.09987043970816], [979.5348601575081, -22.79892693843979], [964.1085551663995, -22.439875704300125]]]}}, {"type": "Feature", "properties": {"name": "189", "coordinate_units": "m"}, "geometry": {"type": "Polygon", "coordinates": [[[964.2227885886574, -16.830571380082077], [964.3043866520801, -11.220697403556608], [979.7338250623549, -11.400235173896515], [979.6509213818351, -17.09987043970816], [964.2227885886574, -16.830571380082077]]]}}, {"type": "Feature", "properties": {"name": "190", "coordinate_units": "m"}, "geometry": {"type": "Polygon", "coordinates": [[[964.3043866520801, -11.220697403556608], [964.3533465948765, -5.610443648114397], [979.7835683930862, -5.700214052481677], [979.7338250623549, -11.400235173896515], [964.3043866520801, -11.220697403556608]]]}}, {"type": "Feature", "properties": {"name": "191", "coordinate_units": "m"}, "geometry": {"type": "Polygon", "coordinates": [[[964.3533465948765, -5.610443648114397], [964.3696667599343, -2.3620244511847065e-13], [979.8001496904016, -2.3998182342448957e-13], [979.7835683930862, -5.700214052481677], [964.3533465948765, -5.610443648114397]]]}}, {"type": "Feature", "properties": {"name": "192", "coordinate_units": "m"}, "geometry": {"type": "Polygon", "coordinates": [[[979.2032819125243, -34.194532093229974], [979.3856453176152, -28.4972117782037], [994.5704320135005, -28.939043945489715], [994.3852411732508, -34.72469779300691], [979.2032819125243, -34.194532093229974]]]}}, {"type": "Feature", "properties": {"name": "193", "coordinate_units": "m"}, "geometry": {"type": "Polygon", "coordinates": [[[979.3856453176152, -28.4972117782037], [979.5348601575081, -22.79892693843979], [994.7219603399413, -23.15241061885764], [994.5704320135005, -28.939043945489715], [979.3856453176152, -28.4972117782037]]]}}, {"type": "Feature", "properties": {"name": "194", "coordinate_units": "m"}, "geometry": {"type": "Polygon", "coordinates": [[[979.5348601575081, -22.79892693843979], [979.6509213818351, -17.09987043970816], [994.8398210239026, -17.364993669148628], [994.7219603399413, -23.15241061885764], [979.5348601575081, -22.79892693843979]]]}}, {"type": "Feature", "properties": {"name": "195", "coordinate_units": "m"}, "geometry": {"type": "Polygon", "coordinates": [[[979.6509213818351, -17.09987043970816], [979.7338250623549, -11.400235173896515], [994.9240100762378, -11.576988978923348], [994.8398210239026, -17.364993669148628], [979.6509213818351, -17.09987043970816]]]}}, {"type": "Feature", "properties": {"name": "196", "coordinate_units": "m"}, "geometry": {"type": "Polygon", "coordinates": [[[979.7338250623549, -11.400235173896515], [979.7835683930862, -5.700214052481677], [994.9745246474607, -5.788592450635298], [994.9240100762378, -11.576988978923348], [979.7338250623549, -11.400235173896515]]]}}, {"type": "Feature", "properties": {"name": "197", "coordinate_units": "m"}, "geometry": {"type": "Polygon", "coordinates": [[[994.9913630278405, -2.437025975822614e-13], [994.9745246474607, -5.788592450635298], [979.7835683930862, -5.700214052481677], [979.8001496904016, -2.3998182342448957e-13], [989.4152181787009, -2.4233683599404524e-13], [994.9913630278405, -2.437025975822614e-13]]]}}, {"type": "Feature", "properties": {"name": "198", "coordinate_units": "m"}, "geometry": {"type": "Polygon", "coordinates": [[[994.3852411732508, -34.72469779300691], [994.5704320135005, -28.939043945489715], [1009.5268427421039, -29.374231050806728], [1009.33886699072, -35.2468899132446], [994.3852411732508, -34.72469779300691]]]}}, {"type": "Feature", "properties": {"name": "199", "coordinate_units": "m"}, "geometry": {"type": "Polygon", "coordinates": [[[994.5704320135005, -28.939043945489715], [994.7219603399413, -23.15241061885764], [1009.6806497607462, -23.5005779797874], [1009.5268427421039, -29.374231050806728], [994.5704320135005, -28.939043945489715]]]}}, {"type": "Feature", "properties": {"name": "200", "coordinate_units": "m"}, "geometry": {"type": "Polygon", "coordinates": [[[994.7219603399413, -23.15241061885764], [994.8398210239026, -17.364993669148628], [1009.8002828408509, -17.626129501519582], [1009.6806497607462, -23.5005779797874], [994.7219603399413, -23.15241061885764]]]}}, {"type": "Feature", "properties": {"name": "201", "coordinate_units": "m"}, "geometry": {"type": "Polygon", "coordinates": [[[994.8398210239026, -17.364993669148628], [994.9240100762378, -11.576988978923348], [1009.8857379332825, -11.751084444257815], [1009.8002828408509, -17.626129501519582], [994.8398210239026, -17.364993669148628]]]}}, {"type": "Feature", "properties": {"name": "202", "coordinate_units": "m"}, "geometry": {"type": "Polygon", "coordinates": [[[994.9240100762378, -11.576988978923348], [994.9745246474607, -5.788592450635298], [1009.937012145704, -5.875641656448627], [1009.8857379332825, -11.751084444257815], [994.9240100762378, -11.576988978923348]]]}}, {"type": "Feature", "properties": {"name": "203", "coordinate_units": "m"}, "geometry": {"type": "Polygon", "coordinates": [[[998.8573050453456, -2.446494802857468e-13], [1009.9541037426734, -2.473674120868398e-13], [1009.937012145704, -5.875641656448627], [994.9745246474607, -5.788592450635298], [994.9913630278405, -2.437025975822614e-13], [998.8573050453456, -2.446494802857468e-13]]]}}, {"type": "Feature", "properties": {"name": "204", "coordinate_units": "m"}, "geometry": {"type": "Polygon", "coordinates": [[[1009.33886699072, -35.2468899132446], [1009.5268427421039, -29.374231050806728], [1024.2648818534003, -29.803064191008474], [1024.0741618520783, -35.761457748491026], [1009.33886699072, -35.2468899132446]]]}}, {"type": "Feature", "properties": {"name": "205", "coordinate_units": "m"}, "geometry": {"type": "Polygon", "coordinates": [[[1009.5268427421039, -29.374231050806728], [1009.6806497607462, -23.5005779797874], [1024.420934294116, -23.843661910535996], [1024.2648818534003, -29.803064191008474], [1009.5268427421039, -29.374231050806728]]]}}, {"type": "Feature", "properties": {"name": "206", "coordinate_units": "m"}, "geometry": {"type": "Polygon", "coordinates": [[[1009.6806497607462, -23.5005779797874], [1009.8002828408509, -17.626129501519582], [1024.54231389243, -17.883452610698697], [1024.420934294116, -23.843661910535996], [1009.6806497607462, -23.5005779797874]]]}}, {"type": "Feature", "properties": {"name": "207", "coordinate_units": "m"}, "geometry": {"type": "Polygon", "coordinates": [[[1009.8002828408509, -17.626129501519582], [1009.8857379332825, -11.751084444257815], [1024.6290165400937, -11.922638022436283], [1024.54231389243, -17.883452610698697], [1009.8002828408509, -17.626129501519582]]]}}, {"type": "Feature", "properties": {"name": "208", "coordinate_units": "m"}, "geometry": {"type": "Polygon", "coordinates": [[[1009.8857379332825, -11.751084444257815], [1009.937012145704, -5.875641656448627], [1024.6810393025448, -5.961419897175233], [1024.6290165400937, -11.922638022436283], [1009.8857379332825, -11.751084444257815]]]}}, {"type": "Feature", "properties": {"name": "209", "coordinate_units": "m"}, "geometry": {"type": "Polygon", "coordinates": [[[1009.937012145704, -5.875641656448627], [1009.9541037426734, -2.473674120868398e-13], [1024.6983804190058, -2.509787183343225e-13], [1024.6810393025448, -5.961419897175233], [1009.937012145704, -5.875641656448627]]]}}, {"type": "Feature", "properties": {"name": "210", "coordinate_units": "m"}, "geometry": {"type": "Polygon", "coordinates": [[[1024.0741618520783, -35.761457748491026], [1024.2648818534003, -29.803064191008474], [1038.7938439264449, -30.225813810724176], [1038.6004186057128, -36.268725812162636], [1024.0741618520783, -35.761457748491026]]]}}, {"type": "Feature", "properties": {"name": "211", "coordinate_units": "m"}, "geometry": {"type": "Polygon", "coordinates": [[[1024.2648818534003, -29.803064191008474], [1024.420934294116, -23.843661910535996], [1038.9521099351866, -24.18187877779188], [1038.7938439264449, -30.225813810724176], [1024.2648818534003, -29.803064191008474]]]}}, {"type": "Feature", "properties": {"name": "212", "coordinate_units": "m"}, "geometry": {"type": "Polygon", "coordinates": [[[1024.420934294116, -23.843661910535996], [1024.54231389243, -17.883452610698697], [1039.0752112752214, -18.137125278110442], [1038.9521099351866, -24.18187877779188], [1024.420934294116, -23.843661910535996]]]}}, {"type": "Feature", "properties": {"name": "213", "coordinate_units": "m"}, "geometry": {"type": "Polygon", "coordinates": [[[1024.54231389243, -17.883452610698697], [1024.6290165400937, -11.922638022436283], [1039.1631437800263, -12.091757904126622], [1039.0752112752214, -18.137125278110442], [1024.54231389243, -17.883452610698697]]]}}, {"type": "Feature", "properties": {"name": "214", "coordinate_units": "m"}, "geometry": {"type": "Polygon", "coordinates": [[[1024.6290165400937, -11.922638022436283], [1024.6810393025448, -5.961419897175233], [1039.215904473413, -6.04598126906453], [1039.1631437800263, -12.091757904126622], [1024.6290165400937, -11.922638022436283]]]}}, {"type": "Feature", "properties": {"name": "215", "coordinate_units": "m"}, "geometry": {"type": "Polygon", "coordinates": [[[1024.6810393025448, -5.961419897175233], [1024.6983804190058, -2.509787183343225e-13], [1039.2334915696279, -2.545387938034945e-13], [1039.215904473413, -6.04598126906453], [1024.6810393025448, -5.961419897175233]]]}}, {"type": "Feature", "properties": {"name": "216", "coordinate_units": "m"}, "geometry": {"type": "Polygon", "coordinates": [[[1038.6004186057128, -36.268725812162636], [1038.7938439264449, -30.225813810724176], [1053.1223823282833, -30.642731697219126], [1052.9262890073967, -36.76899623022849], [1038.6004186057128, -36.268725812162636]]]}}, {"type": "Feature", "properties": {"name": "217", "coordinate_units": "m"}, "geometry": {"type": "Polygon", "coordinates": [[[1038.7938439264449, -30.225813810724176], [1038.9521099351866, -24.18187877779188], [1053.282831369392, -24.51543002159452], [1053.1223823282833, -30.642731697219126], [1038.7938439264449, -30.225813810724176]]]}}, {"type": "Feature", "properties": {"name": "218", "coordinate_units": "m"}, "geometry": {"type": "Polygon", "coordinates": [[[1038.9521099351866, -24.18187877779188], [1039.0752112752214, -18.137125278110442], [1053.407630700119, -18.387298589750475], [1053.282831369392, -24.51543002159452], [1038.9521099351866, -24.18187877779188]]]}}, {"type": "Feature", "properties": {"name": "219", "coordinate_units": "m"}, "geometry": {"type": "Polygon", "coordinates": [[[1039.0752112752214, -18.137125278110442], [1039.1631437800263, -12.091757904126622], [1053.4967760964703, -12.258544816166966], [1053.407630700119, -18.387298589750475], [1039.0752112752214, -18.137125278110442]]]}}, {"type": "Feature", "properties": {"name": "220", "coordinate_units": "m"}, "geometry": {"type": "Polygon", "coordinates": [[[1039.1631437800263, -12.091757904126622], [1039.215904473413, -6.04598126906453], [1053.5502645412062, -6.129376136387907], [1053.4967760964703, -12.258544816166966], [1039.1631437800263, -12.091757904126622]]]}}, {"type": "Feature", "properties": {"name": "221", "coordinate_units": "m"}, "geometry": {"type": "Polygon", "coordinates": [[[1039.215904473413, -6.04598126906453], [1039.2334915696279, -2.545387938034945e-13], [1053.5680942239408, -2.580497588550252e-13], [1053.5502645412062, -6.129376136387907], [1039.215904473413, -6.04598126906453]]]}}, {"type": "Feature", "properties": {"name": "222", "coordinate_units": "m"}, "geometry": {"type": "Polygon", "coordinates": [[[1052.9262890073967, -36.76899623022849], [1053.1223823282833, -30.642731697219126], [1067.2585694863822, -31.054052734143273], [1067.059843981496, -37.26255084557795], [1052.9262890073967, -36.76899623022849]]]}}, {"type": "Feature", "properties": {"name": "223", "coordinate_units": "m"}, "geometry": {"type": "Polygon", "coordinates": [[[1053.1223823282833, -30.642731697219126], [1053.282831369392, -24.51543002159452], [1067.421172254078, -24.844503558404515], [1067.2585694863822, -31.054052734143273], [1053.1223823282833, -30.642731697219126]]]}}, {"type": "Feature", "properties": {"name": "224", "coordinate_units": "m"}, "geometry": {"type": "Polygon", "coordinates": [[[1053.282831369392, -24.51543002159452], [1053.407630700119, -18.387298589750475], [1067.547646781084, -18.634113488529767], [1067.421172254078, -24.844503558404515], [1053.282831369392, -24.51543002159452]]]}}, {"type": "Feature", "properties": {"name": "225", "coordinate_units": "m"}, "geometry": {"type": "Polygon", "coordinates": [[[1053.407630700119, -18.387298589750475], [1053.4967760964703, -12.258544816166966], [1067.6379887867074, -12.423092723148265], [1067.547646781084, -18.634113488529767], [1053.407630700119, -18.387298589750475]]]}}, {"type": "Feature", "properties": {"name": "226", "coordinate_units": "m"}, "geometry": {"type": "Polygon", "coordinates": [[[1053.4967760964703, -12.258544816166966], [1053.5502645412062, -6.129376136387907], [1067.692195213207, -6.21165148223594], [1067.6379887867074, -12.423092723148265], [1053.4967760964703, -12.258544816166966]]]}}, {"type": "Feature", "properties": {"name": "227", "coordinate_units": "m"}, "geometry": {"type": "Polygon", "coordinates": [[[1067.7102642258965, -2.6151359150020375e-13], [1067.692195213207, -6.21165148223594], [1053.5502645412062, -6.129376136387907], [1053.5680942239408, -2.580497588550252e-13], [1054.7959584244372, -2.583504988476103e-13], [1067.7102642258965, -2.6151359150020375e-13]]]}}, {"type": "Feature", "properties": {"name": "228", "coordinate_units": "m"}, "geometry": {"type": "Polygon", "coordinates": [[[1067.059843981496, -37.26255084557795], [1067.2585694863822, -31.054052734143273], [1081.2099500667935, -31.45999644885778], [1081.0086267892316, -37.749653074697335], [1067.059843981496, -37.26255084557795]]]}}, {"type": "Feature", "properties": {"name": "229", "coordinate_units": "m"}, "geometry": {"type": "Polygon", "coordinates": [[[1067.2585694863822, -31.054052734143273], [1067.421172254078, -24.844503558404515], [1081.3746784047685, -25.16927501902768], [1081.2099500667935, -31.45999644885778], [1067.2585694863822, -31.054052734143273]]]}}, {"type": "Feature", "properties": {"name": "230", "coordinate_units": "m"}, "geometry": {"type": "Polygon", "coordinates": [[[1067.421172254078, -24.844503558404515], [1067.547646781084, -18.634113488529767], [1081.5028062277147, -18.877701702754333], [1081.3746784047685, -25.16927501902768], [1067.421172254078, -24.844503558404515]]]}}, {"type": "Feature", "properties": {"name": "231", "coordinate_units": "m"}, "geometry": {"type": "Polygon", "coordinates": [[[1067.547646781084, -18.634113488529767], [1067.6379887867074, -12.423092723148265], [1081.594329198981, -12.58548944641823], [1081.5028062277147, -18.877701702754333], [1067.547646781084, -18.634113488529767]]]}}, {"type": "Feature", "properties": {"name": "232", "coordinate_units": "m"}, "geometry": {"type": "Polygon", "coordinates": [[[1067.6379887867074, -12.423092723148265], [1067.692195213207, -6.21165148223594], [1081.6492442208555, -6.292851218025604], [1081.594329198981, -12.58548944641823], [1067.6379887867074, -12.423092723148265]]]}}, {"type": "Feature", "properties": {"name": "233", "coordinate_units": "m"}, "geometry": {"type": "Polygon", "coordinates": [[[1077.4363167997246, -2.6389578733077927e-13], [1081.667549434668, -2.649321404313455e-13], [1081.6492442208555, -6.292851218025604], [1067.692195213207, -6.21165148223594], [1067.7102642258965, -2.6151359150020375e-13], [1077.4363167997246, -2.6389578733077927e-13]]]}}, {"type": "Feature", "properties": {"name": "234", "coordinate_units": "m"}, "geometry": {"type": "Polygon", "coordinates": [[[1081.0086267892316, -37.749653074697335], [1081.2099500667935, -31.45999644885778], [1094.9835880526964, -31.860768382280696], [1094.7797000984563, -38.23054955138273], [1081.0086267892316, -37.749653074697335]]]}}, {"type": "Feature", "properties": {"name": "235", "coordinate_units": "m"}, "geometry": {"type": "Polygon", "coordinates": [[[1081.2099500667935, -31.45999644885778], [1081.3746784047685, -25.16927501902768], [1095.15041488088, -25.489908844547234], [1094.9835880526964, -31.860768382280696], [1081.2099500667935, -31.45999644885778]]]}}, {"type": "Feature", "properties": {"name": "236", "coordinate_units": "m"}, "geometry": {"type": "Polygon", "coordinates": [[[1081.3746784047685, -25.16927501902768], [1081.5028062277147, -18.877701702754333], [1095.2801749365383, -19.118186568106843], [1095.15041488088, -25.489908844547234], [1081.3746784047685, -25.16927501902768]]]}}, {"type": "Feature", "properties": {"name": "237", "coordinate_units": "m"}, "geometry": {"type": "Polygon", "coordinates": [[[1081.5028062277147, -18.877701702754333], [1081.594329198981, -12.58548944641823], [1095.3728638277755, -12.74581721208452], [1095.2801749365383, -19.118186568106843], [1081.5028062277147, -18.877701702754333]]]}}, {"type": "Feature", "properties": {"name": "238", "coordinate_units": "m"}, "geometry": {"type": "Polygon", "coordinates": [[[1081.594329198981, -12.58548944641823], [1081.6492442208555, -6.292851218025604], [1095.4284784174179, -6.373016457506503], [1095.3728638277755, -12.74581721208452], [1081.594329198981, -12.58548944641823]]]}}, {"type": "Feature", "properties": {"name": "239", "coordinate_units": "m"}, "geometry": {"type": "Polygon", "coordinates": [[[1095.447016823117, -2.683071365575894e-13], [1095.4284784174179, -6.373016457506503], [1081.6492442208555, -6.292851218025604], [1081.667549434668, -2.649321404313455e-13], [1085.9395102600058, -2.659784690615121e-13], [1095.447016823117, -2.683071365575894e-13]]]}}, {"type": "Feature", "properties": {"name": "240", "coordinate_units": "m"}, "geometry": {"type": "Polygon", "coordinates": [[[1094.7797000984563, -38.23054955138273], [1094.9835880526964, -31.860768382280696], [1108.5861085572367, -32.25656130551629], [1108.3796877887073, -38.70547158660459], [1094.7797000984563, -38.23054955138273]]]}}, {"type": "Feature", "properties": {"name": "241", "coordinate_units": "m"}, "geometry": {"type": "Polygon", "coordinates": [[[1094.9835880526964, -31.860768382280696], [1095.15041488088, -25.489908844547234], [1108.75500780493, -25.806559259676675], [1108.5861085572367, -32.25656130551629], [1094.9835880526964, -31.860768382280696]]]}}, {"type": "Feature", "properties": {"name": "242", "coordinate_units": "m"}, "geometry": {"type": "Polygon", "coordinates": [[[1095.15041488088, -25.489908844547234], [1095.2801749365383, -19.118186568106843], [1108.8863798151756, -19.35568375769009], [1108.75500780493, -25.806559259676675], [1095.15041488088, -25.489908844547234]]]}}, {"type": "Feature", "properties": {"name": "243", "coordinate_units": "m"}, "geometry": {"type": "Polygon", "coordinates": [[[1095.2801749365383, -19.118186568106843], [1095.3728638277755, -12.74581721208452], [1108.9802201415189, -12.904153137724125], [1108.8863798151756, -19.35568375769009], [1095.2801749365383, -19.118186568106843]]]}}, {"type": "Feature", "properties": {"name": "244", "coordinate_units": "m"}, "geometry": {"type": "Polygon", "coordinates": [[[1095.3728638277755, -12.74581721208452], [1095.4284784174179, -6.373016457506503], [1109.0365256078137, -6.452185760119677], [1108.9802201415189, -12.904153137724125], [1095.3728638277755, -12.74581721208452]]]}}, {"type": "Feature", "properties": {"name": "245", "coordinate_units": "m"}, "geometry": {"type": "Polygon", "coordinates": [[[1109.0552943083287, -2.716402032504241e-13], [1109.0365256078137, -6.452185760119677], [1095.4284784174179, -6.373016457506503], [1095.447016823117, -2.683071365575894e-13], [1109.0552943083287, -2.716402032504241e-13]]]}}, {"type": "Feature", "properties": {"name": "246", "coordinate_units": "m"}, "geometry": {"type": "Polygon", "coordinates": [[[1108.3796877887073, -38.70547158660459], [1108.5861085572367, -32.25656130551629], [1122.0237350731027, -32.64755630370708], [1121.8148121938477, -39.17463646904945], [1108.3796877887073, -38.70547158660459]]]}}, {"type": "Feature", "properties": {"name": "247", "coordinate_units": "m"}, "geometry": {"type": "Polygon", "coordinates": [[[1108.5861085572367, -32.25656130551629], [1108.75500780493, -25.806559259676675], [1122.1946816177917, -26.119371139885434], [1122.0237350731027, -32.64755630370708], [1108.5861085572367, -32.25656130551629]]]}}, {"type": "Feature", "properties": {"name": "248", "coordinate_units": "m"}, "geometry": {"type": "Polygon", "coordinates": [[[1108.75500780493, -25.806559259676675], [1108.8863798151756, -19.35568375769009], [1122.3276460420093, -19.590301932396926], [1122.1946816177917, -26.119371139885434], [1108.75500780493, -25.806559259676675]]]}}, {"type": "Feature", "properties": {"name": "249", "coordinate_units": "m"}, "geometry": {"type": "Polygon", "coordinates": [[[1108.8863798151756, -19.35568375769009], [1108.9802201415189, -12.904153137724125], [1122.4226238454035, -13.060569665975548], [1122.3276460420093, -19.590301932396926], [1108.8863798151756, -19.35568375769009]]]}}, {"type": "Feature", "properties": {"name": "250", "coordinate_units": "m"}, "geometry": {"type": "Polygon", "coordinates": [[[1108.9802201415189, -12.904153137724125], [1109.0365256078137, -6.452185760119677], [1122.4796118133288, -6.530395347797368], [1122.4226238454035, -13.060569665975548], [1108.9802201415189, -12.904153137724125]]]}}, {"type": "Feature", "properties": {"name": "251", "coordinate_units": "m"}, "geometry": {"type": "Polygon", "coordinates": [[[1111.6014732276903, -2.7226383722315464e-13], [1122.4986080169542, -2.749328654710645e-13], [1122.4796118133288, -6.530395347797368], [1109.0365256078137, -6.452185760119677], [1109.0552943083287, -2.716402032504241e-13], [1111.6014732276903, -2.7226383722315464e-13]]]}}, {"type": "Feature", "properties": {"name": "252", "coordinate_units": "m"}, "geometry": {"type": "Polygon", "coordinates": [[[1121.8148121938477, -39.17463646904945], [1122.0237350731027, -32.64755630370708], [1135.302322753158, -33.03392374440126], [1135.0909273765003, -39.63824862708875], [1121.8148121938477, -39.17463646904945]]]}}, {"type": "Feature", "properties": {"name": "253", "coordinate_units": "m"}, "geometry": {"type": "Polygon", "coordinates": [[[1122.0237350731027, -32.64755630370708], [1122.1946816177917, -26.119371139885434], [1135.475292364393, -26.42848078613216], [1135.302322753158, -33.03392374440126], [1122.0237350731027, -32.64755630370708]]]}}, {"type": "Feature", "properties": {"name": "254", "coordinate_units": "m"}, "geometry": {"type": "Polygon", "coordinates": [[[1122.1946816177917, -26.119371139885434], [1122.3276460420093, -19.590301932396926], [1135.6098303558267, -19.822143321983166], [1135.475292364393, -26.42848078613216], [1122.1946816177917, -26.119371139885434]]]}}, {"type": "Feature", "properties": {"name": "255", "coordinate_units": "m"}, "geometry": {"type": "Polygon", "coordinates": [[[1122.3276460420093, -19.590301932396926], [1122.4226238454035, -13.060569665975548], [1135.705932173848, -13.215134951931667], [1135.6098303558267, -19.822143321983166], [1122.3276460420093, -19.590301932396926]]]}}, {"type": "Feature", "properties": {"name": "256", "coordinate_units": "m"}, "geometry": {"type": "Polygon", "coordinates": [[[1122.4226238454035, -13.060569665975548], [1122.4796118133288, -6.530395347797368], [1135.7635945657673, -6.607679298662724], [1135.705932173848, -13.215134951931667], [1122.4226238454035, -13.060569665975548]]]}}, {"type": "Feature", "properties": {"name": "257", "coordinate_units": "m"}, "geometry": {"type": "Polygon", "coordinates": [[[1135.782815579927, -2.781865579253052e-13], [1135.7635945657673, -6.607679298662724], [1122.4796118133288, -6.530395347797368], [1122.4986080169542, -2.749328654710645e-13], [1125.9578502160082, -2.7578013544837387e-13], [1135.782815579927, -2.781865579253052e-13]]]}}, {"type": "Feature", "properties": {"name": "258", "coordinate_units": "m"}, "geometry": {"type": "Polygon", "coordinates": [[[1135.0909273765003, -39.63824862708875], [1135.302322753158, -33.03392374440126], [1148.427388227064, -33.415824145127864], [1148.2135489391205, -40.09650066980445], [1135.0909273765003, -39.63824862708875]]]}}, {"type": "Feature", "properties": {"name": "259", "coordinate_units": "m"}, "geometry": {"type": "Polygon", "coordinates": [[[1135.302322753158, -33.03392374440126], [1135.475292364393, -26.42848078613216], [1148.6023575148847, -26.734016618960073], [1148.427388227064, -33.415824145127864], [1135.302322753158, -33.03392374440126]]]}}, {"type": "Feature", "properties": {"name": "260", "coordinate_units": "m"}, "geometry": {"type": "Polygon", "coordinates": [[[1135.475292364393, -26.42848078613216], [1135.6098303558267, -19.822143321983166], [1148.7384508805221, -20.051304245659654], [1148.6023575148847, -26.734016618960073], [1135.475292364393, -26.42848078613216]]]}}, {"type": "Feature", "properties": {"name": "261", "coordinate_units": "m"}, "geometry": {"type": "Polygon", "coordinates": [[[1135.6098303558267, -19.822143321983166], [1135.705932173848, -13.215134951931667], [1148.8356637177214, -13.36791321021091], [1148.7384508805221, -20.051304245659654], [1135.6098303558267, -19.822143321983166]]]}}, {"type": "Feature", "properties": {"name": "262", "coordinate_units": "m"}, "geometry": {"type": "Polygon", "coordinates": [[[1135.705932173848, -13.215134951931667], [1135.7635945657673, -6.607679298662724], [1148.8939927361898, -6.684069720568324], [1148.8356637177214, -13.36791321021091], [1135.705932173848, -13.215134951931667]]]}}, {"type": "Feature", "properties": {"name": "263", "coordinate_units": "m"}, "geometry": {"type": "Polygon", "coordinates": [[[1148.9134359617062, -2.814026323695782e-13], [1148.8939927361898, -6.684069720568324], [1135.7635945657673, -6.607679298662724], [1135.782815579927, -2.781865579253052e-13], [1148.9134359617062, -2.814026323695782e-13]]]}}, {"type": "Feature", "properties": {"name": "264", "coordinate_units": "m"}, "geometry": {"type": "Polygon", "coordinates": [[[1148.2135489391205, -40.09650066980445], [1148.427388227064, -33.415824145127864], [1161.4041363846416, -33.79340895271301], [1161.1878808023687, -40.549574322110374], [1148.2135489391205, -40.09650066980445]]]}}, {"type": "Feature", "properties": {"name": "265", "coordinate_units": "m"}, "geometry": {"type": "Polygon", "coordinates": [[[1148.427388227064, -33.415824145127864], [1148.6023575148847, -26.734016618960073], [1161.5810827520813, -27.036099801981603], [1161.4041363846416, -33.79340895271301], [1148.427388227064, -33.415824145127864]]]}}, {"type": "Feature", "properties": {"name": "266", "coordinate_units": "m"}, "geometry": {"type": "Polygon", "coordinates": [[[1148.6023575148847, -26.734016618960073], [1148.7384508805221, -20.051304245659654], [1161.7187139157109, -20.27787557972422], [1161.5810827520813, -27.036099801981603], [1148.6023575148847, -26.734016618960073]]]}}, {"type": "Feature", "properties": {"name": "267", "coordinate_units": "m"}, "geometry": {"type": "Polygon", "coordinates": [[[1148.7384508805221, -20.051304245659654], [1148.8356637177214, -13.36791321021091], [1161.817025217227, -13.518965026720672], [1161.7187139157109, -20.27787557972422], [1148.7384508805221, -20.051304245659654]]]}}, {"type": "Feature", "properties": {"name": "268", "coordinate_units": "m"}, "geometry": {"type": "Polygon", "coordinates": [[[1148.8356637177214, -13.36791321021091], [1148.8939927361898, -6.684069720568324], [1161.876013329157, -6.759596906980526], [1161.817025217227, -13.518965026720672], [1148.8356637177214, -13.36791321021091]]]}}, {"type": "Feature", "properties": {"name": "269", "coordinate_units": "m"}, "geometry": {"type": "Polygon", "coordinates": [[[1152.762534587208, -2.823453896318428e-13], [1161.8956762549726, -2.845823641737603e-13], [1161.876013329157, -6.759596906980526], [1148.8939927361898, -6.684069720568324], [1148.9134359617062, -2.814026323695782e-13], [1152.762534587208, -2.823453896318428e-13]]]}}, {"type": "Feature", "properties": {"name": "270", "coordinate_units": "m"}, "geometry": {"type": "Polygon", "coordinates": [[[1161.1878808023687, -40.549574322110374], [1161.4041363846416, -33.79340895271301], [1174.2374844947994, -34.166821245068974], [1174.0188393195494, -40.99764126684702], [1161.1878808023687, -40.549574322110374]]]}}, {"type": "Feature", "properties": {"name": "271", "coordinate_units": "m"}, "geometry": {"type": "Polygon", "coordinates": [[[1161.4041363846416, -33.79340895271301], [1161.5810827520813, -27.036099801981603], [1174.4163860940653, -27.334844803338214], [1174.2374844947994, -34.166821245068974], [1161.4041363846416, -33.79340895271301]]]}}, {"type": "Feature", "properties": {"name": "272", "coordinate_units": "m"}, "geometry": {"type": "Polygon", "coordinates": [[[1161.5810827520813, -27.036099801981603], [1161.7187139157109, -20.27787557972422], [1174.555538062192, -20.50194317867316], [1174.4163860940653, -27.334844803338214], [1161.5810827520813, -27.036099801981603]]]}}, {"type": "Feature", "properties": {"name": "273", "coordinate_units": "m"}, "geometry": {"type": "Polygon", "coordinates": [[[1161.7187139157109, -20.27787557972422], [1161.817025217227, -13.518965026720672], [1174.654935689403, -13.668347639406235], [1174.555538062192, -20.50194317867316], [1161.7187139157109, -20.27787557972422]]]}}, {"type": "Feature", "properties": {"name": "274", "coordinate_units": "m"}, "geometry": {"type": "Polygon", "coordinates": [[[1161.817025217227, -13.518965026720672], [1161.876013329157, -6.759596906980526], [1174.7145756114576, -6.834289477356304], [1174.654935689403, -13.668347639406235], [1161.817025217227, -13.518965026720672]]]}}, {"type": "Feature", "properties": {"name": "275", "coordinate_units": "m"}, "geometry": {"type": "Polygon", "coordinates": [[[1161.876013329157, -6.759596906980526], [1161.8956762549726, -2.845823641737603e-13], [1174.734455809766, -2.8772695823110755e-13], [1174.7145756114576, -6.834289477356304], [1161.876013329157, -6.759596906980526]]]}}, {"type": "Feature", "properties": {"name": "276", "coordinate_units": "m"}, "geometry": {"type": "Polygon", "coordinates": [[[1174.0188393195494, -40.99764126684702], [1174.2374844947994, -34.166821245068974], [1186.9320839770041, -34.536196364679334], [1186.711075044026, -41.44086390491639], [1174.0188393195494, -40.99764126684702]]]}}, {"type": "Feature", "properties": {"name": "277", "coordinate_units": "m"}, "geometry": {"type": "Polygon", "coordinates": [[[1174.2374844947994, -34.166821245068974], [1174.4163860940653, -27.334844803338214], [1187.112919668972, -27.63035990251417], [1186.9320839770041, -34.536196364679334], [1174.2374844947994, -34.166821245068974]]]}}, {"type": "Feature", "properties": {"name": "278", "coordinate_units": "m"}, "geometry": {"type": "Polygon", "coordinates": [[[1174.4163860940653, -27.334844803338214], [1174.555538062192, -20.50194317867316], [1187.2535759993134, -20.723588255326582], [1187.112919668972, -27.63035990251417], [1174.4163860940653, -27.334844803338214]]]}}, {"type": "Feature", "properties": {"name": "279", "coordinate_units": "m"}, "geometry": {"type": "Polygon", "coordinates": [[[1174.555538062192, -20.50194317867316], [1174.654935689403, -13.668347639406235], [1187.354048207334, -13.816115191674806], [1187.2535759993134, -20.723588255326582], [1174.555538062192, -20.50194317867316]]]}}, {"type": "Feature", "properties": {"name": "280", "coordinate_units": "m"}, "geometry": {"type": "Polygon", "coordinates": [[[1174.654935689403, -13.668347639406235], [1174.7145756114576, -6.834289477356304], [1187.414332892423, -6.9081745038574045], [1187.354048207334, -13.816115191674806], [1174.654935689403, -13.668347639406235]]]}}, {"type": "Feature", "properties": {"name": "281", "coordinate_units": "m"}, "geometry": {"type": "Polygon", "coordinates": [[[1174.7145756114576, -6.834289477356304], [1174.734455809766, -2.8772695823110755e-13], [1187.4344280141677, -2.908375542929837e-13], [1187.414332892423, -6.9081745038574045], [1174.7145756114576, -6.834289477356304]]]}}, {"type": "Feature", "properties": {"name": "282", "coordinate_units": "m"}, "geometry": {"type": "Polygon", "coordinates": [[[1186.711075044026, -41.44086390491639], [1186.9320839770041, -34.536196364679334], [1199.4842487978617, -34.90142705892634], [1199.2395201227273, -41.878366847599736], [1186.711075044026, -41.44086390491639]]]}}, {"type": "Feature", "properties": {"name": "283", "coordinate_units": "m"}, "geometry": {"type": "Polygon", "coordinates": [[[1199.540136912044, -33.07637582855233], [1199.5161953990312, -33.99066532375454], [1199.4842487978617, -34.90142705892634], [1186.9320839770041, -34.536196364679334], [1187.112919668972, -27.63035990251417], [1199.6485850885076, -27.922130753812674], [1199.540136912044, -33.07637582855233]]]}}, {"type": "Feature", "properties": {"name": "284", "coordinate_units": "m"}, "geometry": {"type": "Polygon", "coordinates": [[[1199.6485850885076, -27.922130753812674], [1187.112919668972, -27.63035990251417], [1187.2535759993134, -20.723588255326582], [1199.7954402387602, -20.94250730994702], [1199.6485850885076, -27.922130753812674]]]}}, {"type": "Feature", "properties": {"name": "285", "coordinate_units": "m"}, "geometry": {"type": "Polygon", "coordinates": [[[1199.8865582082103, -16.1768552667702], [1199.8660583776912, -17.586220402767317], [1199.7954402387602, -20.94250730994702], [1187.2535759993134, -20.723588255326582], [1187.354048207334, -13.816115191674806], [1199.9020892233946, -13.962124867869957], [1199.8865582082103, -16.1768552667702]]]}}, {"type": "Feature", "properties": {"name": "286", "coordinate_units": "m"}, "geometry": {"type": "Polygon", "coordinates": [[[1199.9020892233946, -13.962124867869957], [1187.354048207334, -13.816115191674806], [1187.414332892423, -6.9081745038574045], [1199.9510442714243, -6.981110957049503], [1199.9020892233946, -13.962124867869957]]]}}, {"type": "Feature", "properties": {"name": "287", "coordinate_units": "m"}, "geometry": {"type": "Polygon", "coordinates": [[[1199.9510442714243, -6.981110957049503], [1187.414332892423, -6.9081745038574045], [1187.4344280141677, -2.908375542929837e-13], [1200.0, -2.9391523179536476e-13], [1199.9510442714243, -6.981110957049503]]]}}, {"type": "Feature", "properties": {"name": "288", "coordinate_units": "m"}, "geometry": {"type": "Polygon", "coordinates": [[[4.996573570520739, -0.17448419390471287], [5.0, -1.2246467991473533e-15], [4.999915384288721, -0.029088656774970065], [4.999661540018811, -0.05817632900698564], [4.999238475781956, -0.0872620321864178], [4.998646205897309, -0.11634478187028152], [4.997884750411003, -0.1454235937155566], [4.9969541350954785, -0.17449748351250408], [4.996573570520739, -0.17448419390471287]]]}}, {"type": "Feature", "properties": {"name": "289", "coordinate_units": "m"}, "geometry": {"type": "Polygon", "coordinates": [[[1199.88198211149, -16.829408908274896], [1199.8660583776912, -17.586220402767317], [1199.8865582082103, -16.1768552667702], [1199.88198211149, -16.829408908274896]]]}}, {"type": "Feature", "properties": {"name": "290", "coordinate_units": "m"}, "geometry": {"type": "Polygon", "coordinates": [[[1199.5279516596634, -33.65550753104275], [1199.5161953990312, -33.99066532375454], [1199.540136912044, -33.07637582855233], [1199.5279516596634, -33.65550753104275]]]}}]}