{"type": "FeatureCollection", "features": [{"type": "Feature", "properties": {"name": "P1", "coordinate_units": "m"}, "geometry": {"type": "Polygon", "coordinates": [[[1199.2395201227273, -41.878366847599736], [4.996573570520739, -0.17448419390471287], [5.0, -1.2246467991473533e-15], [1200.0, -2.9391523179536476e-13], [1199.88198211149, -16.829408908274896], [1199.5279516596634, -33.65550753104275], [1199.2395201227273, -41.878366847599736]]]}}, {"type": "Feature", "properties": {"name": "bearing_298.500_deg", "coordinate_units": "m"}, "geometry": {"type": "Polygon", "coordinates": [[[1154.5977501844966, -2.827948878132358e-13], [1177.869171445034, -41.13209782746773], [1155.2561138233418, -40.34243245475702], [1134.255172748286, -2.7781239334450335e-13], [1154.5977501844966, -2.827948878132358e-13]]]}}, {"type": "Feature", "properties": {"name": "bearing_299.500_deg", "coordinate_units": "m"}, "geometry": {"type": "Polygon", "coordinates": [[[1165.070257389248, -2.8535991229870507e-13], [1189.5389610967309, -41.53961586191183], [1166.4463909513543, -40.73320554289312], [1144.3300648372967, -2.802800302142157e-13], [1165.070257389248, -2.8535991229870507e-13]]]}}, {"type": "Feature", "properties": {"name": "bearing_300.500_deg", "coordinate_units": "m"}, "geometry": {"type": "Polygon", "coordinates": [[[1175.7603546629691, -2.879782309804724e-13], [1199.3577604968336, -38.50746652185464], [1199.2395201227273, -41.878366847599736], [1177.869171445034, -41.13209782746773], [1154.5977501844966, -2.827948878132358e-13], [1175.7603546629691, -2.879782309804724e-13]]]}}]}