{"type": "FeatureCollection", "features": [{"type": "Feature", "properties": {"strategy": "沿示向前进", "qx": 300.0, "qy": 0.0, "distance_m": 600.0, "bearing_deg": 0.35, "error_deg": 0.35, "radius_m": 447.5879645957249, "diameter_m": 895.0639580872456, "center_x": 752.5745301123432, "center_y": 3.3659226188439106}, "geometry": {"type": "Polygon", "coordinates": [[[1199.8284783008248, 20.28848585595068], [1199.8339665116675, 19.961282646122584], [1199.8393654914742, 19.634077951784136], [1199.8446752398427, 19.306871797269395], [1199.8498957563788, 18.979664206912496], [1199.8550270406936, 18.65245520504772], [1199.8600690924059, 18.325244816009413], [1199.8650219111407, 17.998033064132063], [1199.8698854965296, 17.670819973750234], [1199.874659848211, 17.34360556919858], [1199.8793449658297, 17.016389874811892], [1199.8839408490371, 16.689172914925013], [1199.8884474974918, 16.361954713872915], [1199.8928649108584, 16.03473529599064], [1199.8971930888083, 15.70751468561333], [1199.90143203102, 15.380292907076212], [1199.905581737178, 15.053069984714607], [1199.9096422069733, 14.725845942863911], [1199.9136134401047, 14.398620805859611], [1199.9174954362763, 14.071394598037267], [1199.9212881951996, 13.744167343732533], [1199.9249917165926, 13.416939067281131], [1199.9286060001798, 13.089709793018852], [1199.9321310456924, 12.76247954528157], [1199.9355668528679, 12.435248348405237], [1199.9389134214514, 12.108016226725866], [1199.9421707511935, 11.78078320457954], [1199.9453388418524, 11.453549306302415], [1199.9484176931921, 11.126314556230705], [1199.951407304984, 10.799078978700694], [1199.9543076770055, 10.471842598048724], [1199.957118809041, 10.144605438611189], [1199.9598407008814, 9.817367524724556], [1199.9624733523242, 9.490128880725338], [1199.9650167631737, 9.162889530950105], [1199.9674709332407, 8.83564949973548], [1199.9698358623427, 8.508408811418137], [1199.972111550304, 8.181167490334795], [1199.974297996955, 7.853925560822229], [1199.9763952021333, 7.526683047217247], [1199.9784031656832, 7.199439973856715], [1199.980321887455, 6.872196365077522], [1199.982151367306, 6.544952245216613], [1199.9838916051, 6.217707638610963], [1199.9855426007082, 5.890462569597588], [1199.9871043540074, 5.563217062513535], [1199.9885768648815, 5.2359711416958845], [1199.9899601332206, 4.908724831481746], [1199.9912541589226, 4.581478156208261], [1199.9924589418908, 4.254231140212602], [1199.9935744820357, 3.926983807831952], [1199.9946007792744, 3.599736183403531], [1199.9955378335303, 3.272488291264578], [1199.996385644734, 2.94524015575235], [1199.9971442128221, 2.617991801204123], [1199.9978135377387, 2.2907432519571898], [1199.9983936194337, 1.963494532348856], [1199.998884457864, 1.6362456667164418], [1199.999286052993, 1.3089966793972811], [1199.9995984047912, 0.9817475947287053], [1199.999821513235, 0.6544984370480645], [1199.999955378308, 0.327249230692711], [1200.0, 0.0], [1199.999955378308, -0.327249230692711], [1199.999821513235, -0.6544984370480645], [1199.9995984047912, -0.9817475947287053], [1199.999286052993, -1.3089966793972811], [1199.998884457864, -1.6362456667164418], [1199.9983936194337, -1.963494532348856], [1199.9978135377387, -2.2907432519571898], [1199.9971442128221, -2.617991801204123], [1199.996385644734, -2.94524015575235], [1199.9955378335303, -3.272488291264578], [1199.9946007792744, -3.599736183403531], [1199.9935744820357, -3.9269838078319497], [1199.9924589418908, -4.2542311402126], [1199.9912541589226, -4.581478156208264], [1199.9899601332206, -4.908724831481748], [1199.9885768648815, -5.2359711416958845], [1199.9871043540074, -5.563217062513535], [1199.9855426007082, -5.890462569597588], [1199.9838916051, -6.217707638610963], [1199.982151367306, -6.544952245216613], [1199.980321887455, -6.87219636507752], [1199.9784031656832, -7.1994399738567125], [1199.9763952021333, -7.52668304721725], [1199.974297996955, -7.853925560822231], [1199.972111550304, -8.181167490334799], [1199.9698358623427, -8.508408811418137], [1199.9674709332407, -8.83564949973548], [1199.9650167631737, -9.162889530950105], [1199.9624733523242, -9.490128880725338], [1199.9598407008814, -9.817367524724554], [1199.957118809041, -10.144605438611187], [1199.9565559948892, -10.210121288450651], [304.9996519557279, -0.056721685650247405], [305.0, 0.0], [304.9996235091957, 0.06135769142860286], [304.9985844484908, 0.117798171320118], [1156.8667652319662, 20.193184500421015], [1199.8172341876696, 20.942887724740213], [1199.822900859354, 20.615687556934503], [1199.8284783008248, 20.28848585595068]]]}}, {"type": "Feature", "properties": {"strategy": "侧向移动", "qx": 0.0, "qy": 300.0, "distance_m": 948.6832980505138, "bearing_deg": 341.915051177078, "error_deg": 0.35, "radius_m": 105.95478317728954, "diameter_m": 211.9095663545792, "center_x": 930.1447904305403, "center_y": -1.8276058894929719}, "geometry": {"type": "Polygon", "coordinates": [[[913.1535654301806, -15.939154774017187], [825.4413191453376, 14.40813182011544], [923.623414440931, 16.12190666828847], [1034.8482617157429, -18.063343599101394], [913.1535654301806, -15.939154774017187]]]}}, {"type": "Feature", "properties": {"strategy": "推荐测点", "qx": 840.0, "qy": 495.0, "distance_m": 498.62310415783986, "bearing_deg": 277.2612271190247, "error_deg": 0.35, "radius_m": 19.109143392361414, "diameter_m": 38.218286784722885, "center_x": 903.3937779487708, "center_y": -0.1884050909790176}, "geometry": {"type": "Polygon", "coordinates": [[[896.0254577011923, -15.64018254151019], [892.6000575155431, 15.580391958864553], [909.5654585971, 15.876524136276382], [914.1874983819984, -15.957202140822588], [896.0254577011923, -15.64018254151019]]]}}]}